-- MySQL dump 10.13  Distrib 5.1.73, for redhat-linux-gnu (x86_64)
--
-- Host: 172.19.2.98    Database: raw_data
-- ------------------------------------------------------
-- Server version	5.5.5-10.2.9-MariaDB

/*!40101 SET @OLD_CHARACTER_SET_CLIENT=@@CHARACTER_SET_CLIENT */;
/*!40101 SET @OLD_CHARACTER_SET_RESULTS=@@CHARACTER_SET_RESULTS */;
/*!40101 SET @OLD_COLLATION_CONNECTION=@@COLLATION_CONNECTION */;
/*!40101 SET NAMES utf8 */;
/*!40103 SET @OLD_TIME_ZONE=@@TIME_ZONE */;
/*!40103 SET TIME_ZONE='+00:00' */;
/*!40014 SET @OLD_UNIQUE_CHECKS=@@UNIQUE_CHECKS, UNIQUE_CHECKS=0 */;
/*!40014 SET @OLD_FOREIGN_KEY_CHECKS=@@FOREIGN_KEY_CHECKS, FOREIGN_KEY_CHECKS=0 */;
/*!40101 SET @OLD_SQL_MODE=@@SQL_MODE, SQL_MODE='NO_AUTO_VALUE_ON_ZERO' */;
/*!40111 SET @OLD_SQL_NOTES=@@SQL_NOTES, SQL_NOTES=0 */;

--
-- Table structure for table `metar_speci`
--

DROP TABLE IF EXISTS `metar_speci`;
/*!40101 SET @saved_cs_client     = @@character_set_client */;
/*!40101 SET character_set_client = utf8 */;
CREATE TABLE `metar_speci` (
  `data_code` varchar(41) NOT NULL,
  `type_code` char(2) NOT NULL,
  `regional_code` char(2) NOT NULL,
  `bulletin_code` char(2) NOT NULL,
  `centre_code` char(4) NOT NULL,
  `filling_time` datetime NOT NULL,
  `extra_code` varchar(3) DEFAULT NULL,
  `icao_code` char(4) NOT NULL,
  `observed_time` datetime NOT NULL,
  `data_text` text NOT NULL,
  `valid` tinyint(4) DEFAULT NULL,
  `insert_time` datetime NOT NULL,
  PRIMARY KEY (`data_code`)
) ENGINE=MyISAM DEFAULT CHARSET=latin1;
/*!40101 SET character_set_client = @saved_cs_client */;

--
-- Dumping data for table `metar_speci`
--
-- WHERE:  1 GROUP BY centre_code

LOCK TABLES `metar_speci` WRITE;
/*!40000 ALTER TABLE `metar_speci` DISABLE KEYS */;
INSERT INTO `metar_speci` VALUES ('WAWW201801110300SAID34AAWW201801110300','SA','ID','34','AAWW','2018-01-11 03:00:00','','WAWW','2018-01-11 03:00:00','METAR WAWW 110300Z 01005KT 9999 FEW018 31/24 Q1010 NOSIG=',1,'2018-01-11 04:22:01');
INSERT INTO `metar_speci` VALUES ('WAMM202302221600SAID32AWAM202302221600','SA','ID','32','AWAM','2023-02-22 16:00:00','','WAMM','2023-02-22 16:00:00','METAR WAMM 221600Z VRB02KT 9999 SCT020 25/24 Q1010 NOSIG=',1,'2023-02-22 22:55:01');
INSERT INTO `metar_speci` VALUES ('1192049','SA','ID','35','AWDB','2013-02-25 04:00:00','','WADB','2013-02-25 04:00:00','METAR WADB 250400Z 00000KT 9999 SCT015 33/25 Q1007=',NULL,'2014-01-06 04:54:54');
INSERT INTO `metar_speci` VALUES ('WAES201903120000SAID35AWES201903120000','SA','ID','35','AWES','2019-03-12 00:00:00','','WAES','2019-03-12 00:00:00','METAR WAES 120000Z 24003KT 9000 SCT019 26/23 Q1011 NOSIG=',1,'2019-03-12 00:00:01');
INSERT INTO `metar_speci` VALUES ('1221689','SA','ID','34','AWML','2013-03-13 04:00:00','','WAFF','2013-03-13 04:00:00','METAR WAML 130400Z 31012KT 9999 FEW019 34/23 Q1011=',NULL,'2014-01-06 04:54:54');
INSERT INTO `metar_speci` VALUES ('437650','SA','ID','35','AWPA','2011-05-06 03:00:00','','WAPA','2011-05-06 03:00:00','METAR WAPA 060300Z 20006KT 9999 WXNIL SCT019 30/25 Q 1009=',NULL,'2014-01-06 04:54:54');
INSERT INTO `metar_speci` VALUES ('949864','SA','ID','35','AWSF','2012-07-24 05:00:00','','WASF','2012-07-24 05:00:00','METAR WASF 240500Z 9999 FEW012 SCT015 28/23 Q 1008=',NULL,'2014-01-06 04:54:54');
INSERT INTO `metar_speci` VALUES ('WATT201410160000SAID33BABP201410160000','SA','ID','33','BABP','2014-10-16 00:00:00','','WATT','2014-10-16 00:00:00','METAR WATT 160000Z 02001KT 7000 BKN015 25/32 Q1014=',1,'2014-10-16 00:08:01');
INSERT INTO `metar_speci` VALUES ('WAFL201906171500SAID35BAFL201906171500','SA','ID','35','BAFL','2019-06-17 15:00:00','','WAFL','2019-06-17 15:00:00','METAR WAFL 171500Z 09003KT 8000 SCT020 25/24 Q1010=',1,'2019-06-17 15:05:01');
INSERT INTO `metar_speci` VALUES ('1455264','SA','ID','31','EABB','2013-07-28 04:30:00','','WABB','2013-07-28 04:30:00','METAR WABB 280430Z 8000 00000KT SCT017 27/26 Q1009 NOSIG=',0,'2014-01-06 04:54:54');
INSERT INTO `metar_speci` VALUES ('1415271','SA','ID','35','EABT','2013-07-06 06:00:00','','WAYE','2013-07-06 06:00:00','METAR WABT 060600Z 27005KT 1000 TSRA BKN012CB BKN090 21/17 Q1024=',1,'2014-01-06 04:54:54');
INSERT INTO `metar_speci` VALUES ('1040897','SA','ID','35','EADB','2012-09-24 06:00:00','','WADB','2012-09-24 06:00:00','METAR WADB 240600Z 18014KT 9999 FEW015 33/17 Q1006=',NULL,'2014-01-06 04:54:54');
INSERT INTO `metar_speci` VALUES ('WADW201410290200SAID33EADW201410290200','SA','ID','33','EADW','2014-10-29 02:00:00','','WATU','2014-10-29 02:00:00','METAR WADW 290200Z 03008KT 9999 FEW020 31/24 Q1012=',1,'2014-10-29 02:11:01');
INSERT INTO `metar_speci` VALUES ('WAFP201905040000SAID35EAFP201905040000','SA','ID','35','EAFP','2019-05-04 00:00:00','','WAFP','2019-05-04 00:00:00','METAR WAFP 040000Z 00000KT 9999 FEW018 29/25 Q1012 NOSIG=',1,'2019-05-04 00:25:01');
INSERT INTO `metar_speci` VALUES ('WALK201501070900SAID35EALK201501070900','SA','ID','35','EALK','2015-01-07 09:00:00','','WAQT','2015-01-07 09:00:00','METAR WALK 070900Z 19004KT 9000 NIL BKN015 26/24 Q10111009=',0,'2015-01-07 09:07:01');
INSERT INTO `metar_speci` VALUES ('289702','SA','ID','35','EASF','2010-12-21 01:00:00','','WASF','2010-12-21 01:00:00','METAR WASF 210100Z 25008KT 9999 15/PREC FEW012CB SCT013 28/24 Q1007=',NULL,'2014-01-06 04:54:54');
INSERT INTO `metar_speci` VALUES ('WAHQ201610120200SAID34ESHW201610120200','SA','ID','34','ESHW','2016-10-12 02:00:00','','WAHQ','2016-10-12 02:00:00','METAR WAHQ 120200Z 36008KT 7000 SCT015 29/25 Q1011 NOSIG=',1,'2016-10-12 02:25:01');
INSERT INTO `metar_speci` VALUES ('WAHQ202004260700SAID35HAHQ202004260700','SA','ID','35','HAHQ','2020-04-26 07:00:00','','WAHQ','2020-04-26 07:00:00','METAR WAHQ 260700Z 07008KT 8000 SCT015 32/25 Q1008 NOSIG=',1,'2020-04-26 06:55:01');
INSERT INTO `metar_speci` VALUES ('WAMA201406042200SAID35MAMA201406042200','SA','ID','35','MAMA','2014-06-04 22:00:00','','WAEG','2014-06-04 22:00:00','METAR WAMA 042200Z 21002KT CAVOK 25/24 Q1005=',1,'2014-06-04 22:27:01');
INSERT INTO `metar_speci` VALUES ('WAMA201410161900SAID35MAWA201410161900','SA','ID','35','MAWA','2014-10-16 19:00:00','','WAEG','2014-10-16 19:00:00','METAR WAMA 161900Z 00000KT 9999 FEW018 BKN060 25/24 Q1007=',1,'2014-10-16 21:11:01');
INSERT INTO `metar_speci` VALUES ('NCRG201808030300SPKU31NCRG201808030300CCA','SP','KU','31','NCRG','2018-08-03 03:00:00','CCA','NCRG','2018-08-03 03:00:00','SPECI COR NCRG 030300Z 11016KT 9999 BKN015 BKN090 21/17 Q1012=',NULL,'2018-08-03 03:16:01');
INSERT INTO `metar_speci` VALUES ('NFFN201312191100SPFJ31NFFN201312191100','SP','FJ','31','NFFN','2013-12-19 11:00:00','','NFFN','2013-12-19 11:00:00','SPECI NFFN 191100Z 32014KT 3000 SHRA SCT025 OVC045 24/24 Q1009 TEMPO 02015G25KT 1000 +SHRA=',1,'2013-12-19 10:58:02');
INSERT INTO `metar_speci` VALUES ('NGTA201905311700SPKB31NGTT201905311700','SP','KB','31','NGTT','2019-05-31 17:00:00','','NGTA','2019-05-31 17:00:00','SPECI NGTA 311700Z 16005KT 9999 TS FEW015CB FEW018TCU BKN300 27/25 Q1007 RMK LIGHTENING ALONG RANGES=',1,'2019-05-31 17:10:01');
INSERT INTO `metar_speci` VALUES ('none','no','no','no','none','2021-11-01 16:29:00','','none','2021-11-01 16:29:00','SAID31 WADD 011630\nMETAR WADD 011630 Z 05002KT 9999 SCT016 BKN160 26/24 Q1011 NOSIG=',0,'2021-11-01 16:29:00');
INSERT INTO `metar_speci` VALUES ('WAPA201502170500SAID35PAPA201502170500','SA','ID','35','PAPA','2015-02-17 05:00:00','','WAPA','2015-02-17 05:00:00','METAR WAPA 170500Z 14005KT 9999 SCT020 32/25 Q1007=',1,'2015-02-17 05:08:01');
INSERT INTO `metar_speci` VALUES ('1283010','SA','ID','35','QADB','2013-04-18 21:00:00','','WADB','2013-04-18 21:00:00','METAR WADB 182100Z 00000KT 4000 HZ SCT014 25/24 Q1008=',NULL,'2014-01-06 04:54:54');
INSERT INTO `metar_speci` VALUES ('WAPS201706020900SAID35QAPS201706020900','SA','ID','35','QAPS','2017-06-02 09:00:00','','WAPS','2017-06-02 09:00:00','METAR WAPS 020900Z 09008KT 9999 BKN015 25/24 Q1010=',1,'2017-06-02 09:05:01');
INSERT INTO `metar_speci` VALUES ('517449','SA','ID','34','QIPL','2011-07-26 06:00:00','','WIGG','2011-07-26 06:00:00','METAR WIPL 260600Z 19011KT 9999 FEW020 32/23 Q1007=',NULL,'2014-01-06 04:54:54');
INSERT INTO `metar_speci` VALUES ('RKJB201503031047SPKO31RKJB201503031047','SP','KO','31','RKJB','2015-03-03 10:47:00','','RKJB','2015-03-03 10:47:00','SPECI RKJB 031047Z 34016KT 4000 -RA BR SCT008 BKN020 OVC100 05/04 Q1013 NOSIG=',1,'2015-03-03 10:56:01');
INSERT INTO `metar_speci` VALUES ('RKPK201502250133SPKO42RKPK201502250133','SP','KO','42','RKPK','2015-02-25 01:33:00','','RKPK','2015-02-25 01:33:00','SPECI RKPK 250133Z 02003KT CAVOK 09/M01 Q1020 NOSIG=',1,'2015-02-25 01:49:01');
INSERT INTO `metar_speci` VALUES ('RKPK201407160615SPKO31RKSI201407160615','SP','KO','31','RKSI','2014-07-16 06:15:00','','RKPK','2014-07-16 06:15:00','SPECI RKPK 160615Z 19011KT 9000 SCT005 BKN120 OVC200 24/22 Q1010 NOSIG =',0,'2014-07-16 06:22:01');
INSERT INTO `metar_speci` VALUES ('RKSS201503030232SPKO31RKSS201503030232','SP','KO','31','RKSS','2015-03-03 02:32:00','','RKSS','2015-03-03 02:32:00','SPECI RKSS 030232Z 13006KT 6000 BKN030 OVC080 06/M03 Q1012 NOSIG=',1,'2015-03-03 02:42:01');
INSERT INTO `metar_speci` VALUES ('RKTN201503030123SPKO42RKTN201503030123','SP','KO','42','RKTN','2015-03-03 01:23:00','','RKTN','2015-03-03 01:23:00','SPECI RKTN 030123Z 05001KT 4000 -RASN BR BKN015 OVC040 02/M01 Q1015 NOSIG=',0,'2015-03-03 01:35:01');
INSERT INTO `metar_speci` VALUES ('RKTU201503030721SPKO42RKTU201503030721','SP','KO','42','RKTU','2015-03-03 07:21:00','','RKTU','2015-03-03 07:21:00','SPECI RKTU 030721Z 21010KT 9999 -RA BKN040 OVC080 08/M03 Q1009 NOSIG=',1,'2015-03-03 07:32:01');
INSERT INTO `metar_speci` VALUES ('1533681','SA','ID','32','SAID','2013-09-13 10:00:00','','WIDN','2013-09-13 10:00:00','METAR WIDN 131000Z 13005KT 9000 FEW013 28/25 Q1010=',1,'2014-01-06 04:54:54');
INSERT INTO `metar_speci` VALUES ('WAJI201808232100SAID35SAJI201808232100','SA','ID','35','SAJI','2018-08-23 21:00:00','','WAJI','2018-08-23 21:00:00','METAR WAJI 232100Z 00000KT 9999 FEW015 SCT110 23/21 Q1011=',1,'2018-08-23 21:04:02');
INSERT INTO `metar_speci` VALUES ('TDPD201508070000SAID31TDPD201508070000','SA','ID','31','TDPD','2015-08-07 00:00:00','','TDPD','2015-08-07 00:00:00','METAR TDPD 070000Z 10004KT 9999 SCT018 28/22 Q1014=',1,'2015-08-07 00:24:02');
INSERT INTO `metar_speci` VALUES ('TEST201405231300SAID31TEST201405231300','SA','ID','31','TEST','2014-05-23 13:00:00','','TEST','2014-05-23 13:00:00','METAR TEST 231300Z=',1,'2014-05-23 14:07:01');
INSERT INTO `metar_speci` VALUES ('TRPG201511142200SAID31TRPG201511142200','SA','ID','31','TRPG','2015-11-14 22:00:00','','TRPG','2015-11-14 22:00:00','METAR TRPG 142200Z 12013KT 9999 FEW025 26/22 Q1015=',1,'2015-11-14 22:25:01');
INSERT INTO `metar_speci` VALUES ('WAVV201708300500SAID35VAVV201708300500','SA','ID','35','VAVV','2017-08-30 05:00:00','','WAVV','2017-08-30 05:00:00','METAR WAVV 300500Z 23012KT 9999 BKN020 23/17 Q1004=',1,'2017-08-30 22:20:03');
INSERT INTO `metar_speci` VALUES ('VCBI201512040810SPSB31VCBI201512040810RRA','SP','SB','31','VCBI','2015-12-04 08:10:00','RRA','VCBI','2015-12-04 08:10:00','SPECI VCBI 040810Z VRB01KT 9999 RETS FEW010 SCT016 FEW018CB BKN060 26/24 Q1008 NOSIG=',0,'2015-12-04 08:40:02');
INSERT INTO `metar_speci` VALUES ('VCBI201504121610SPSB31VCCC201504121610RRA','SP','SB','31','VCCC','2015-04-12 16:10:00','RRA','VCBI','2015-04-12 16:10:00','SPECI VCBI 121610Z 12006KT 9999 VCTS SCT016 FEW018CB 26/21 Q1014 NOSIG=',1,'2015-04-12 16:46:01');
INSERT INTO `metar_speci` VALUES ('VCRI201512271410SPSB31VCRI201512271410','SP','SB','31','VCRI','2015-12-27 14:10:00','','VCRI','2015-12-27 14:10:00','SPECI VCRI 271410Z 07004KT 9000 SCT017 BKN080 25/23 Q1013 NOSIG=',1,'2015-12-27 14:35:01');
INSERT INTO `metar_speci` VALUES ('VTCC201312211100SPAE31VTBB201312211139','SP','AE','31','VTBB','2013-12-21 11:39:00','','VTCC','2013-12-21 11:00:00','SPECI VTCC 211100Z 22003KT 9999 FEW040 22/10 Q1018 A3006 NOSIG=',0,'2013-12-21 11:46:01');
INSERT INTO `metar_speci` VALUES ('WAMI201401211000SAID35WA,I201401211000','SA','ID','35','WA,I','2014-01-21 10:00:00','','WAFL','2014-01-21 10:00:00','METAR WAMI 211000Z 33002KT 9999 SCT019 28/25 Q1008=',1,'2014-01-21 10:13:01');
INSERT INTO `metar_speci` VALUES ('WAOO201411050130SAID32WA00201411050130','SA','ID','32','WA00','2014-11-05 01:30:00','','WAOO','2014-11-05 01:30:00','METAR WAOO 050130Z 10006KT 9000 SCT019 29/23 Q1013=',1,'2014-11-05 01:41:01');
INSERT INTO `metar_speci` VALUES ('WAOM201406030300SAID35WA0M201406030300','SA','ID','35','WA0M','2014-06-03 03:00:00','','WAGK','2014-06-03 03:00:00','METAR WAOM 030300Z 00000KT 9999 BKN012 28/24 Q1010=',1,'2014-06-03 03:09:01');
INSERT INTO `metar_speci` VALUES ('WALL202210231648SPID32WA33202210231648','SP','ID','32','WA33','2022-10-23 16:48:00','','WALL','2022-10-23 16:48:00','SPECI WALL 231648Z 23006KT 9000 TS FEW015CB SCT016 27/24 Q1010 RMK CB TO SE=',1,'2022-10-23 16:40:01');
INSERT INTO `metar_speci` VALUES ('WAHS201704210600SAID31WA6S201704210600','SA','ID','31','WA6S','2017-04-21 06:00:00','','WAHS','2017-04-21 06:00:00','METAR WAHS 210600Z 01010KT 8000 FEW013CB SCT014 33/24 Q1008 NOSIG=',1,'2017-04-21 06:00:02');
INSERT INTO `metar_speci` VALUES ('WALL201412222200SAID32WA;;201412222200','SA','ID','32','WA;;','2014-12-22 22:00:00','','WALL','2014-12-22 22:00:00','METAR WALL 222200Z 32003KT 7000 FEW015CB SCT80 26/24 Q1007 RMK CB TO SE ABD SW BOSIG=',0,'2014-12-22 22:06:01');
INSERT INTO `metar_speci` VALUES ('WAAA201312190930SAID31WAAA201312190930','SA','ID','31','WAAA','2013-12-19 09:30:00','','WAAA','2013-12-19 09:30:00','METAR WAAA 190930Z 26012KT 5000 -RA FEW017CB BKN018 25/25 Q1008 TEMPO FM0910 TL1000 34005G20KT 5000 RA BKN018=',0,'2013-12-19 09:32:01');
INSERT INTO `metar_speci` VALUES ('WAGG202207290711SPID34WAAG202207290711','SP','ID','34','WAAG','2022-07-29 07:11:00','','WAGG','2022-07-29 07:11:00','SPECI WAGG 290711Z 21004KT 6000 -RA FEW009TCU BKN010 32/24 Q1005 TEMPO TL0800 25010KT 5000 RA FEW010CB BKN011=',1,'2022-07-29 07:15:01');
INSERT INTO `metar_speci` VALUES ('WAQJ202201060700SAID35WAAJ202201060700','SA','ID','35','WAAJ','2022-01-06 07:00:00','','WAQJ','2022-01-06 07:00:00','METAR WAQJ 060700Z 00000KT 7000 BKN017 25/21 Q1015=',1,'2022-01-06 07:10:08');
INSERT INTO `metar_speci` VALUES ('WAQQ201706012330SAID33WAAQ201706012330','SA','ID','33','WAAQ','2017-06-01 23:30:00','','WAQQ','2017-06-01 23:30:00','METAR WAQQ 012330Z 00000KT 9999 FEW015 26/25 Q1011=',1,'2017-06-01 23:40:01');
INSERT INTO `metar_speci` VALUES ('WARR201401230300SAID31WAAR201401230300','SA','ID','31','WAAR','2014-01-23 03:00:00','','WARR','2014-01-23 03:00:00','METAR WARR 230300Z 29013KT 9000 FEW020 28/23 Q1011=',1,'2014-01-23 02:59:01');
INSERT INTO `metar_speci` VALUES ('WASS201708282230SAID34WAAS201708282230','SA','ID','34','WAAS','2017-08-28 22:30:00','','WASS','2017-08-28 22:30:00','METAR WASS 282230Z 06003KT 5000 FEW012 25/25Q1010 NOSIG=',0,'2017-08-28 23:20:02');
INSERT INTO `metar_speci` VALUES ('WABO201711030600SAID31WAB0201711030600','SA','ID','31','WAB0','2017-11-03 06:00:00','','WABO','2017-11-03 06:00:00','METAR WABO 030600Z 26007KT 9999 FEW012 BKN300 32/25 Q1002=',1,'2017-11-03 06:00:01');
INSERT INTO `metar_speci` VALUES ('WABB201312191100SAID31WABB201312191100','SA','ID','31','WABB','2013-12-19 11:00:00','','WABB','2013-12-19 11:00:00','METAR WABB 191100Z 32003KT 9999 FEW018 26/25 Q1007 NOSIG=',1,'2013-12-19 11:03:01');
INSERT INTO `metar_speci` VALUES ('463969','SA','ID','31','WABD','2011-05-30 11:00:00','','WABB','2011-05-30 11:00:00','METAR WABB 301100Z 00000KT 9999 FEW017CB SCT020 27/26 Q1010 RMK CB TO SW=',NULL,'2014-01-06 04:54:54');
INSERT INTO `metar_speci` VALUES ('WABI201312191200SAID35WABI201312191200','SA','ID','35','WABI','2013-12-19 12:00:00','','WABI','2013-12-19 12:00:00','METAR WABI 191200Z 15006KT 3000 BKN014 25/24 Q1008 RERA=',1,'2013-12-19 15:52:01');
INSERT INTO `metar_speci` VALUES ('136259','SA','ID','??','WABO','2010-06-24 05:00:00','','WABO','2010-06-24 05:00:00','METAR WABO 240500Z 26005KT 9999 HZ SCT015 31/25 1007=',NULL,'2013-12-19 17:15:25');
INSERT INTO `metar_speci` VALUES ('WABP201312191200SAID33WABP201312191200','SA','ID','33','WABP','2013-12-19 12:00:00','','WAYY','2013-12-19 12:00:00','METAR WABP 191200Z 31002KT 3000 -RA BKN010 FEW012CB 24/23 Q1011=',0,'2013-12-19 12:02:01');
INSERT INTO `metar_speci` VALUES ('WABT201312191200SAID35WABT201312191200','SA','ID','35','WABT','2013-12-19 12:00:00','','WAYE','2013-12-19 12:00:00','METAR WABT 191200Z 10003KT 0200 -RA SCT013 SCT100 16/15 Q1020=',1,'2013-12-19 12:02:01');
INSERT INTO `metar_speci` VALUES ('427170','SA','ID','35','WACI','2011-04-26 04:00:00','','WABI','2011-04-26 04:00:00','METAR WABI 260400Z 33006KT 9999 FEW015 32/26 Q1006 NOSIG=',NULL,'2014-01-06 04:54:54');
INSERT INTO `metar_speci` VALUES ('1397781','SA','ID','35','WACT','2013-06-26 22:00:00','','WATC','2013-06-26 22:00:00','METAR WATC 262200Z 19003KT 8000 FEW015 25/23 1011=',NULL,'2014-01-06 04:54:54');
INSERT INTO `metar_speci` VALUES ('4739','SA','ID','??','WADA','2010-01-24 02:00:00','','WADA','2010-01-24 02:00:00','METAR WADA 240200Z 28004KT 9999 FEW016 30/24 Q1011=',NULL,'2013-12-19 17:15:25');
INSERT INTO `metar_speci` VALUES ('WADB201312191100SAID35WADB201312191100','SA','ID','35','WADB','2013-12-19 11:00:00','','WADB','2013-12-19 11:00:00','METAR WADB 191100Z 00000KT 5000 HZ FEW014 27/25 Q1008=',1,'2013-12-19 11:08:01');
INSERT INTO `metar_speci` VALUES ('20','SA','ID','??','WADD','2010-01-18 08:00:00','','WADD','2010-01-18 08:00:00','METAR WADD 180800Z 27012KT 9999 SCT020 30/25 Q1008 NOSIG=',1,'2013-12-19 17:15:25');
INSERT INTO `metar_speci` VALUES ('WARE201910030600SAID31WADE201910030600','SA','ID','31','WADE','2019-10-03 06:00:00','','WARE','2019-10-03 06:00:00','METAR WARE 030600Z 24016KT 9000 FEW020 33/22 Q1011=',1,'2019-10-03 06:05:02');
INSERT INTO `metar_speci` VALUES ('WADI201403102200SAID34WADI201403102200','SA','ID','34','WADI','2014-03-10 22:00:00','','WADI','2014-03-10 22:00:00','METAR WADI 102200Z 00000KT 3000 BR BKN012 23/23 QI011=',0,'2014-03-10 22:06:01');
INSERT INTO `metar_speci` VALUES ('WADL201312191100SAID32WADL201312191100','SA','ID','32','WADL','2013-12-19 11:00:00','','WADL','2013-12-19 11:00:00','METAR WADL 191100Z 26006KT 7000 SCT016 26/25 Q1008=',1,'2013-12-19 10:53:01');
INSERT INTO `metar_speci` VALUES ('1216637','SA','ID','35','WADN','2013-03-10 05:00:00','','WADB','2013-03-10 05:00:00','METAR WADB 100500Z 36005KT 7000 SCT015 33/24 Q1008=',NULL,'2014-01-06 04:54:54');
INSERT INTO `metar_speci` VALUES ('WAQD201601291500SAID35WADQ201601291500','SA','ID','35','WADQ','2016-01-29 15:00:00','','WAQD','2016-01-29 15:00:00','METAR WAQD 291500Z 00000KT 8000 FEW015 24/23 Q1012=',1,'2016-01-29 15:20:01');
INSERT INTO `metar_speci` VALUES ('4590','SA','ID','??','WADS','2010-01-24 00:00:00','','WADS','2010-01-24 00:00:00','METAR WADS 240000Z 13001KT CAVOK 26/24 Q1010 NOSIG=',NULL,'2013-12-19 17:15:25');
INSERT INTO `metar_speci` VALUES ('WADT201501070300SAID34WADT201501070300','SA','ID','34','WADT','2015-01-07 03:00:00','','WATK','2015-01-07 03:00:00','METAR WADT 070300Z 31014KT 9999 SCT020 30/23 Q1007=',1,'2015-01-07 03:07:01');
INSERT INTO `metar_speci` VALUES ('68811','SA','ID','??','WADW','2010-04-07 04:00:00','','WATU','2010-04-07 04:00:00','METAR WADW 070400Z 01008KT 9999 FEW020 32/24 Q1010=',NULL,'2013-12-19 17:15:25');
INSERT INTO `metar_speci` VALUES ('WADY201503180700SAID31WADY201503180700','SA','ID','31','WADY','2015-03-18 07:00:00','','WADY','2015-03-18 07:00:00','METAR WADY 180700Z 11004KT 9999 SCT019 30/23 Q1008=',1,'2015-03-18 07:11:01');
INSERT INTO `metar_speci` VALUES ('WAEL201505051400SAID35WAE;201505051400','SA','ID','35','WAE;','2015-05-05 14:00:00','','WAEL','2015-05-05 14:00:00','METAR WAEL 051400Z 12002KT 9000 FEW016CB SCT017 25/23 Q1010=',1,'2015-05-05 14:36:01');
INSERT INTO `metar_speci` VALUES ('WAEW201807111800SAID35WAEA201807111800','SA','ID','35','WAEA','2018-07-11 18:00:00','','WAEW','2018-07-11 18:00:00','METAR WAEW 111800Z 33002KT 8000 FEW017 26/24 Q1007 NOSIG=',1,'2018-07-11 19:52:01');
INSERT INTO `metar_speci` VALUES ('WAEG201901260000SAID35WAED201901260000','SA','ID','35','WAED','2019-01-26 00:00:00','','WAEG','2019-01-26 00:00:00','METAR WAEG 260000Z 22002KT 8000 SCT018 BKN060 24/24 Q1011 RERA=',1,'2019-01-26 00:25:01');
INSERT INTO `metar_speci` VALUES ('WAEE201503060900SAID35WAEE201503060900','SA','ID','35','WAEE','2015-03-06 09:00:00','','WAEE','2015-03-06 09:00:00','METAR WAEE 060900Z 32008KT 9000 SCT018 28/24 Q1010 NOSIG=',1,'2015-03-06 09:09:01');
INSERT INTO `metar_speci` VALUES ('WAEG201503270200SAID35WAEG201503270200','SA','ID','35','WAEG','2015-03-27 02:00:00','','WAEG','2015-03-27 02:00:00','METAR WAEG 270200Z 06006KT 9999 SCT019 31/24 Q1011=',1,'2015-03-27 02:23:01');
INSERT INTO `metar_speci` VALUES ('WAEK202104070500SAID35WAEK202104070500','SA','ID','35','WAEK','2021-04-07 05:00:00','','WAEK','2021-04-07 05:00:00','METAR WAEK 070500Z 07007KT 9999 SCT018 32/25 Q1007=',1,'2021-04-07 05:20:01');
INSERT INTO `metar_speci` VALUES ('WAEL201504012300SAID35WAEL201504012300','SA','ID','35','WAEL','2015-04-01 23:00:00','','WAEL','2015-04-01 23:00:00','METAR WAEL 012300Z 00000KT 9999 FEW017 25/23 Q1009=',1,'2015-04-01 23:13:01');
INSERT INTO `metar_speci` VALUES ('WAEW202101231500SAID35WAEQ202101231500','SA','ID','35','WAEQ','2021-01-23 15:00:00','','WAEW','2021-01-23 15:00:00','METAR WAEW 231500Z 00000KT 9000 SCT018 23/22 Q1009=',1,'2021-01-23 14:55:01');
INSERT INTO `metar_speci` VALUES ('WAES201505040400SAID35WAES201505040400','SA','ID','35','WAES','2015-05-04 04:00:00','','WAES','2015-05-04 04:00:00','METAR WAES 040400Z 32002KT 9000 -RA FEW018CB FEW019 30/26 Q1010=',1,'2015-05-04 04:13:01');
INSERT INTO `metar_speci` VALUES ('WAEW201702010000SAID35WAEW201702010000','SA','ID','35','WAEW','2017-02-01 00:00:00','','WAEW','2017-02-01 00:00:00','METAR WAEW 010000Z 36004KT 9000 SCT018 28/25 Q1009=',1,'2017-02-01 00:40:01');
INSERT INTO `metar_speci` VALUES ('WAFF201503071500SAID34WAFF201503071500','SA','ID','34','WAFF','2015-03-07 15:00:00','','WAFF','2015-03-07 15:00:00','METAR WAFF 071500Z 00000KT 7000 SCT020 26/22 Q1014 NOSIG=',1,'2015-03-07 15:02:01');
INSERT INTO `metar_speci` VALUES ('WAFJ201601112330SAID31WAFJ201601112330','SA','ID','31','WAFJ','2016-01-11 23:30:00','','WAFJ','2016-01-11 23:30:00','METAR WAFJ 112330Z 09003KT 9999 FEW016 26/24 Q1012 NOSIG=',1,'2016-01-12 02:25:01');
INSERT INTO `metar_speci` VALUES ('WAFL201707171500SAID35WAFK201707171500','SA','ID','35','WAFK','2017-07-17 15:00:00','','WAFL','2017-07-17 15:00:00','METAR WAFL 171500Z 10006KT 7000 OVC018 24/21 Q1012 RERA=',1,'2017-07-17 15:10:01');
INSERT INTO `metar_speci` VALUES ('WAMI201503300000SAID35WAFL201503300000','SA','ID','35','WAFL','2015-03-30 00:00:00','','WAFL','2015-03-30 00:00:00','METAR WAMI 300000Z 00000KT 9999 BKN020 26/25 Q1012 NOSIG=',1,'2015-03-30 00:05:01');
INSERT INTO `metar_speci` VALUES ('WAFM201503240800SAID35WAFM201503240800','SA','ID','35','WAFM','2015-03-24 08:00:00','','WAFM','2015-03-24 08:00:00','METAR WAFM 240800Z 18005KT 7000 TS FEW016CB SCT017 BKN100 32/26 Q1009=',1,'2015-03-24 08:11:01');
INSERT INTO `metar_speci` VALUES ('WAFM201711102000SAID35WAFN201711102000','SA','ID','35','WAFN','2017-11-10 20:00:00','','WAFM','2017-11-10 20:00:00','METAR WAFM 102000Z 00000KT 8000 FEW017 SCT090 25/23 Q1009=',1,'2017-11-10 20:11:01');
INSERT INTO `metar_speci` VALUES ('WAMP201503250000SAID35WAFP201503250000','SA','ID','35','WAFP','2015-03-25 00:00:00','','WAFP','2015-03-25 00:00:00','METAR WAMP 250000Z 22003KT 6000 RA SCT016 24/23 Q1015=',1,'2015-03-25 00:15:01');
INSERT INTO `metar_speci` VALUES ('WASF201407060100SAID35WAFS201407060100','SA','ID','35','WAFS','2014-07-06 01:00:00','','WASF','2014-07-06 01:00:00','METAR WASF 060100Z 00000KT 9999 FEW010CB SCT011 26/23 Q1012=',1,'2014-07-06 01:24:01');
INSERT INTO `metar_speci` VALUES ('WAFT201503120500SAID35WAFT201503120500','SA','ID','35','WAFT','2015-03-12 05:00:00','','WAFT','2015-03-12 05:00:00','METAR WAFT 120500Z 32003KT 8000 FEW016CB SCT018 28/17 Q1008=',1,'2015-03-12 05:06:01');
INSERT INTO `metar_speci` VALUES ('WAFW201503252300SAID35WAFW201503252300','SA','ID','35','WAFW','2015-03-25 23:00:00','','WAFW','2015-03-25 23:00:00','METAR WAFW 252300Z 24003KT 9999 FEW020 27/23 Q1013=',1,'2015-03-25 23:12:01');
INSERT INTO `metar_speci` VALUES ('WAGB202301010730SAID35WAGB202301010730','SA','ID','35','WAGB','2023-01-01 07:30:00','','WAGB','2023-01-01 07:30:00','METAR WAGB 010730Z 24005KT 9999 FEW015 34/21 Q1007 NOSIG=',1,'2023-01-01 07:25:01');
INSERT INTO `metar_speci` VALUES ('WAEG201904142100SAID35WAGE201904142100','SA','ID','35','WAGE','2019-04-14 21:00:00','','WAEG','2019-04-14 21:00:00','METAR WAEG 142100Z 00000KT 9999 FEW018 23/22 Q1009=',1,'2019-04-14 21:05:01');
INSERT INTO `metar_speci` VALUES ('WAGG201503050000SAID34WAGG201503050000','SA','ID','34','WAGG','2015-03-05 00:00:00','','WAGG','2015-03-05 00:00:00','METAR WAGG 050000Z 36002KT 7000 BKN010 24/23 Q1014 NOSIG=',1,'2015-03-05 00:05:02');
INSERT INTO `metar_speci` VALUES ('WAGI201503060100SAID34WAGI201503060100','SA','ID','34','WAGI','2015-03-06 01:00:00','','WAGI','2015-03-06 01:00:00','METAR WAGI 060100Z 30003KT 6000 SCT013 27/25 Q1012=',1,'2015-03-06 01:03:01');
INSERT INTO `metar_speci` VALUES ('WAGK201503060000SAID35WAGK201503060000','SA','ID','35','WAGK','2015-03-06 00:00:00','','WAGK','2015-03-06 00:00:00','METAR WAGK 060000Z 00000KT 5000 BR 24/23 Q1013=',1,'2015-03-06 00:18:01');
INSERT INTO `metar_speci` VALUES ('WAGM201503060100SAID35WAGM201503060100','SA','ID','35','WAGM','2015-03-06 01:00:00','','WAGM','2015-03-06 01:00:00','METAR WAGM 060100Z 00000KT 9999 FEW012 26/24 Q1014 NOSIG=',1,'2015-03-06 01:11:01');
INSERT INTO `metar_speci` VALUES ('WAGS201503190600SAID35WAGS201503190600','SA','ID','35','WAGS','2015-03-19 06:00:00','','WAGS','2015-03-19 06:00:00','METAR WAGS 190600Z 28003KT 9999 FEW009TCU SCT010 34/24 Q1008=',1,'2015-03-19 06:13:01');
INSERT INTO `metar_speci` VALUES ('WAGU201503070700SAID35WAGU201503070700','SA','ID','35','WAGU','2015-03-07 07:00:00','','WAGU','2015-03-07 07:00:00','METAR WAGU 070700Z 17001KT 9999 FEW017TCU FEW018 33/24 Q1009 NOSIG=',1,'2015-03-07 07:11:02');
INSERT INTO `metar_speci` VALUES ('WAHQ201803250500SAID34WAH1201803250500','SA','ID','34','WAH1','2018-03-25 05:00:00','','WAHQ','2018-03-25 05:00:00','METAR WAHQ 250500Z 18008KT 8000 SCT015 28/24 Q1011 NOSIG=',1,'2018-03-25 05:40:01');
INSERT INTO `metar_speci` VALUES ('WAHA201609100900SAID35WAHA201609100900','SA','ID','35','WAHA','2016-09-10 09:00:00','','WAHA','2016-09-10 09:00:00','METAR WAHA 100900Z 05004KT 8000 SCT015 28/24 Q1007 NOSIG=',1,'2016-09-10 09:20:01');
INSERT INTO `metar_speci` VALUES ('WAHQ201608110900SAID35WAHG201608110900','SA','ID','35','WAHG','2016-08-11 09:00:00','','WAHQ','2016-08-11 09:00:00','METAR WAHQ 110900Z 12003KT 7000 SCT015 32/20 Q1009 NOSIG=',1,'2016-08-11 09:25:02');
INSERT INTO `metar_speci` VALUES ('718179','SA','ID','31','WAHH','2012-02-01 14:30:00','','WAAA','2012-02-01 14:30:00','METAR WAAA 011430Z VRB01KT 3000 RA SCT019 24/24 Q1013=',NULL,'2014-01-06 04:54:54');
INSERT INTO `metar_speci` VALUES ('WAHI201904221330SAID32WAHI201904221330','SA','ID','32','WAHI','2019-04-22 13:30:00','','WAHI','2019-04-22 13:30:00','METAR WAHI 221330Z NIL=',1,'2019-04-22 13:55:01');
INSERT INTO `metar_speci` VALUES ('WAHL201503180600SAID34WAHL201503180600','SA','ID','34','WAHL','2015-03-18 06:00:00','','WAHL','2015-03-18 06:00:00','METAR WAHL 180600Z 23006KT 8000 SCT015 32/24 Q1008=',1,'2015-03-18 06:35:01');
INSERT INTO `metar_speci` VALUES ('1551648','SA','ID','35','WAHM','2013-09-24 00:00:00','','WAMH','2013-09-24 00:00:00','METAR WAMH 240000Z 22006KT 9000 SCT019 30/24 Q1009=',1,'2014-01-06 04:54:54');
INSERT INTO `metar_speci` VALUES ('WAHQ201608130100SAID35WAHO201608130100','SA','ID','35','WAHO','2016-08-13 01:00:00','','WAHQ','2016-08-13 01:00:00','METAR WAHQ 130100Z 04003KT 4000 RA SCT012 24/22 Q1013 NSG=',0,'2016-08-13 04:00:01');
INSERT INTO `metar_speci` VALUES ('WAHQ201505010100SAID31WAHQ201505010100','SA','ID','31','WAHQ','2015-05-01 01:00:00','','WAHQ','2015-05-01 01:00:00','METAR WAHQ 010100Z 00000KT 5000 HZ FEW015 26/24 Q1012 NSG=',0,'2015-05-01 02:00:01');
INSERT INTO `metar_speci` VALUES ('WAHS201503050000SAID31WAHS201503050000','SA','ID','31','WAHS','2015-03-05 00:00:00','','WAHS','2015-03-05 00:00:00','METAR WAHS 050000Z 15002KT 5000 HZ SCT017 25/23 Q1010 NOSIG=',1,'2015-03-05 00:14:01');
INSERT INTO `metar_speci` VALUES ('WAHW201610040200SAID34WAHW201610040200','SA','ID','34','WAHW','2016-10-04 02:00:00','','WAHW','2016-10-04 02:00:00','METAR WAHW 040200Z 00000KT NSC 28/23 Q1011 NOSIG=',1,'2016-10-04 03:00:01');
INSERT INTO `metar_speci` VALUES ('WAJI201910102100SAID35WAII201910102100','SA','ID','35','WAII','2019-10-10 21:00:00','','WAJI','2019-10-10 21:00:00','METAR WAJI 102100Z 00000KT 9999 FEW015CB SCT016 24/22 Q1011=',1,'2019-10-10 21:10:01');
INSERT INTO `metar_speci` VALUES ('WAIL201504100000SAID34WAIL201504100000','SA','ID','34','WAIL','2015-04-10 00:00:00','','WAIL','2015-04-10 00:00:00','METAR WAIL 100000Z 00000KT 5000 HZ FEW015 26/25 Q1011=',1,'2015-04-10 00:20:01');
INSERT INTO `metar_speci` VALUES ('736867','SA','ID','35','WAIM','2012-02-19 02:00:00','','WAGK','2012-02-19 02:00:00','METAR WAOM 190200Z 00000KT 9000 BKN011 27/25 Q1012=',NULL,'2014-01-06 04:54:54');
INSERT INTO `metar_speci` VALUES ('1693060','SA','ID','34','WAIU','2013-12-19 07:00:00','','WAGI','2013-12-19 07:00:00','METAR WAOI 190700Z 19005KT 60000 TS FEW012 BKN012 27/25 Q1007 RMK CB TO NW=',0,'2014-01-06 04:54:54');
INSERT INTO `metar_speci` VALUES ('1101951','SA','ID','35','WAJA','2012-12-19 21:00:00','','WAVV','2012-12-19 21:00:00','METAR WAJW 192100Z 00000KT 8000 BKN008 17/14 Q1005=',NULL,'2014-01-06 04:54:54');
INSERT INTO `metar_speci` VALUES ('31973','SA','ID','??','WAJI','2010-02-23 23:05:00','','WAJI','2010-02-23 23:05:00','METAR WAJI 232305Z 00000KT 9999 BKN015 25/24 Q1011 NOSIG=',NULL,'2013-12-19 17:15:25');
INSERT INTO `metar_speci` VALUES ('279','SA','ID','??','WAJJ','2010-01-18 21:00:00','','WAJJ','2010-01-18 21:00:00','METAR WAJJ 182100Z 00000KT 5000 FEW017 24/23 Q1010 NOSIG=',NULL,'2013-12-19 17:15:25');
INSERT INTO `metar_speci` VALUES ('WAQJ201608040400SAID35WAJQ201608040400','SA','ID','35','WAJQ','2016-08-04 04:00:00','','WAQJ','2016-08-04 04:00:00','METAR WAQJ 040400Z 00000KT 9999 BKN017 BKN063 26/17 Q1016=',1,'2016-08-04 04:20:01');
INSERT INTO `metar_speci` VALUES ('WAJI201401150100SAID35WAJU201401150100','SA','ID','35','WAJU','2014-01-15 01:00:00','','WAJI','2014-01-15 01:00:00','METAR WAJI 150100Z 00000KT 9999 FEW015 31/25 Q1010=',1,'2014-01-15 00:58:01');
INSERT INTO `metar_speci` VALUES ('22','SA','ID','??','WAJW','2010-01-18 08:00:00','','WAVV','2010-01-18 08:00:00','METAR WAJW 180800Z 13517KT 9999 PREC IN SIGHT SCT012 21/15 Q1005=',NULL,'2013-12-19 17:15:25');
INSERT INTO `metar_speci` VALUES ('WAJI201404240500SAID35WAJZ201404240500','SA','ID','35','WAJZ','2014-04-24 05:00:00','','WAJI','2014-04-24 05:00:00','METAR WAJI 240500Z 33006KT 9999 FEW015 Q1008=',1,'2014-04-24 05:43:01');
INSERT INTO `metar_speci` VALUES ('1544480','SA','ID','35','WAKB','2013-09-20 00:00:00','','WAQJ','2013-09-20 00:00:00','METAR WALB 200000Z 00000KT 1000 OVC010 18/17 Q1036=',NULL,'2014-01-06 04:54:54');
INSERT INTO `metar_speci` VALUES ('WAGK201701260000SAID35WAKG201701260000','SA','ID','35','WAKG','2017-01-26 00:00:00','','WAGK','2017-01-26 00:00:00','METAR WAGK 260000Z 00000KT 3000 -RA BKN007 24/24 Q1014=',1,'2017-01-26 00:10:02');
INSERT INTO `metar_speci` VALUES ('1610','SA','ID','??','WAKK','2010-01-20 09:00:00','','WAKK','2010-01-20 09:00:00','METAR WAKK 200900Z 00000KT 5000 RETS FEW 016 27/24 Q1008 NOSIG=',NULL,'2013-12-19 17:15:25');
INSERT INTO `metar_speci` VALUES ('1141970','SA','ID','35','WAKL','2013-01-26 02:00:00','','WAQT','2013-01-26 02:00:00','METAR WALK 260200Z 00000KT 9999 DZ BKN017 27/25 Q1014=',NULL,'2014-01-06 04:54:54');
INSERT INTO `metar_speci` VALUES ('572184','SA','ID','31','WAKS','2011-09-13 04:00:00','','WASK','2011-09-13 04:00:00','METAR WASK 130400Z 18007KT 9999 SCT016 27/24 Q1011=',NULL,'2014-01-06 04:54:54');
INSERT INTO `metar_speci` VALUES ('30523','SA','ID','??','WAKT','2010-02-22 04:00:00','','WAKT','2010-02-22 04:00:00','METAR WAKT 220400Z 26004KT 8000 BKN007 28/26 Q1009 NOSIG=',NULL,'2013-12-19 17:15:25');
INSERT INTO `metar_speci` VALUES ('446911','SA','ID','34','WALA','2011-05-15 03:00:00','','WALS','2011-05-15 03:00:00','METAR WALS 150300Z 34004KT 9999 SCT014 31/25 Q1012 NOSIG=',NULL,'2014-01-06 04:54:54');
INSERT INTO `metar_speci` VALUES ('60318','SA','ID','??','WALB','2010-03-29 05:00:00','','WAQJ','2010-03-29 05:00:00','METAR WALB 290500Z 96505 06008KT 9999 RERA BKN015 25/23 Q0908=',NULL,'2013-12-19 17:15:25');
INSERT INTO `metar_speci` VALUES ('1288346','SA','ID','33','WALE','2013-04-22 08:00:00','','WAQQ','2013-04-22 08:00:00','METAR WALR 220800Z 15006KT 9999 BKN015 31/25 Q1007=',NULL,'2014-01-06 04:54:54');
INSERT INTO `metar_speci` VALUES ('40','SA','ID','??','WALF','2010-01-18 09:00:00','','WAQA','2010-01-18 09:00:00','METAR WALF 180900Z 13004KT 8000 FEW015 29/25 Q1007=',NULL,'2013-12-19 17:15:25');
INSERT INTO `metar_speci` VALUES ('WALG201312191100SAID35WALG201312191100','SA','ID','35','WALG','2013-12-19 11:00:00','','WAQD','2013-12-19 11:00:00','METAR WALG 191100Z 00000KT 7000 FEW014CB SCT014 26/25 Q1008 RMK CB TO N=',1,'2013-12-19 10:58:02');
INSERT INTO `metar_speci` VALUES ('WALK201312191200SAID35WALK201312191200','SA','ID','35','WALK','2013-12-19 12:00:00','','WAQT','2013-12-19 12:00:00','METAR WALK 191200Z 00000KT 8000 BKN018 26/25 Q1011=',1,'2013-12-19 15:52:01');
INSERT INTO `metar_speci` VALUES ('WALL201312190930SAID32WALL201312190930','SA','ID','32','WALL','2013-12-19 09:30:00','','WALL','2013-12-19 09:30:00','METAR WALL 190930Z 07003KT 9999 SCT020 29/24 Q1006 NOSIG=',1,'2013-12-19 09:32:01');
INSERT INTO `metar_speci` VALUES ('WAPL201804121600SAID35WALP201804121600','SA','ID','35','WALP','2018-04-12 16:00:00','','WAPL','2018-04-12 16:00:00','METAR WAPL 121600Z 00000KT 5000 SCT019 24/24 Q1009 NOSIG=',NULL,'2018-04-12 17:40:01');
INSERT INTO `metar_speci` VALUES ('WALR201312191100SAID33WALR201312191100','SA','ID','33','WALR','2013-12-19 11:00:00','','WAQQ','2013-12-19 11:00:00','METAR WALR 191100Z 00000KT 8000 SCT015 28/25 Q1008=',1,'2013-12-19 11:09:01');
INSERT INTO `metar_speci` VALUES ('WALS201312191200SAID34WALS201312191200','SA','ID','34','WALS','2013-12-19 12:00:00','','WALS','2013-12-19 12:00:00','METAR WALS 191200Z 00000KT 7000 SCT015 27/25 Q1009 =',0,'2013-12-19 12:04:01');
INSERT INTO `metar_speci` VALUES ('1490577','SA','ID','34','WAMA','2013-08-18 03:00:00','','WAEG','2013-08-18 03:00:00','METAR WAMA 180300Z 00000KT 9999 FEW020 29/24 Q1008 NOSIG=',1,'2013-12-19 17:15:25');
INSERT INTO `metar_speci` VALUES ('WAMW201401090300SAID35WAME201401090300','SA','ID','35','WAME','2014-01-09 03:00:00','','WAFW','2014-01-09 03:00:00','METAR WAMW 090300Z 13002KT 8000 SCT019 30/24 Q1009=',1,'2014-01-09 03:01:01');
INSERT INTO `metar_speci` VALUES ('336698','SA','ID','34','WAMF','2011-02-03 04:00:00','','WAMG','2011-02-03 04:00:00','METAR WAMG 030400Z 25003KT 9000 SCT017 32/24 Q1006=',1,'2014-01-06 04:54:54');
INSERT INTO `metar_speci` VALUES ('377','SA','ID','??','WAMG','2010-01-19 00:00:00','','WAMG','2010-01-19 00:00:00','METAR WAMG 190000Z 00000KT 99999 FEW020CU 28/25 Q1011=',NULL,'2013-12-19 17:15:25');
INSERT INTO `metar_speci` VALUES ('345','SA','ID','??','WAMH','2010-01-18 23:00:00','','WAMH','2010-01-18 23:00:00','METAR WAMH 182300Z 00000KT 50000 BKN018 27/25 Q1010=',NULL,'2013-12-19 17:15:25');
INSERT INTO `metar_speci` VALUES ('WAMI201312190900SAID35WAMI201312190900','SA','ID','35','WAMI','2013-12-19 09:00:00','','WAFL','2013-12-19 09:00:00','METAR WAMI 190900Z 35002KT 9999 SCT017 30/25 Q1007=',1,'2013-12-19 09:32:01');
INSERT INTO `metar_speci` VALUES ('WAML201312191100SAID34WAML201312191100','SA','ID','34','WAML','2013-12-19 11:00:00','','WAFF','2013-12-19 11:00:00','METAR WAML 191100Z 02002KT 9000 FEW020 29/24 Q1008=',1,'2013-12-19 10:57:01');
INSERT INTO `metar_speci` VALUES ('WAMM201312191200SAID32WAMM201312191200','SA','ID','32','WAMM','2013-12-19 12:00:00','','WAMM','2013-12-19 12:00:00','METAR WAMM 191200Z 00000KT 9000 -RA FEW020 26/25 Q1009 TEMPO RA=',1,'2013-12-19 12:04:01');
INSERT INTO `metar_speci` VALUES ('WAMN202203090630SAID32WAMN202203090630','SA','ID','32','WAMN','2022-03-09 06:30:00','','WAMN','2022-03-09 06:30:00','METAR WAMN 090630Z 32006KT 240V350 9999 FEW021 32/23 Q1006 NOSIG=',1,'2022-03-09 06:35:01');
INSERT INTO `metar_speci` VALUES ('37403','SA','ID','??','WAMP','2010-03-02 07:00:00','','WAFP','2010-03-02 07:00:00','METAR WAMP 020700Z 06005KT 9999 SCT018 Q1009 NOSIG 0000008400 270 SAID34 WAMP 020700 METAR WAMP 020700Z 06005KT 9999 SCT018 Q1009 NOSIG 0000009100 271 SAID35 WIDT 020700 METAR WIDT 020700Z 08005KT 9999 FEW018 32/22 Q1009 NOSIG=',NULL,'2013-12-19 17:15:25');
INSERT INTO `metar_speci` VALUES ('WAMT201312191100SAID35WAMT201312191100','SA','ID','35','WAMT','2013-12-19 11:00:00','','WAEE','2013-12-19 11:00:00','METAR WAMT 191100Z 32006KT 8000 SCT018 26/24 Q1010=',1,'2013-12-19 10:59:01');
INSERT INTO `metar_speci` VALUES ('1101735','SA','ID','35','WAMU','2012-12-19 09:00:00','','WAFL','2012-12-19 09:00:00','METAR WAMI 190900Z 10002KT 9999 SCT020 31/25 Q1005 NOSIG=',1,'2014-01-06 04:54:54');
INSERT INTO `metar_speci` VALUES ('357','SA','ID','??','WAMW','2009-12-19 00:00:00','','WAFW','2009-12-19 00:00:00','METAR WAMW 190000Z 05003KT 9999 SCT019 29/25 Q1013=',1,'2013-12-19 17:15:25');
INSERT INTO `metar_speci` VALUES ('WAMH201606260100SAID35WANH201606260100','SA','ID','35','WANH','2016-06-26 01:00:00','','WAMH','2016-06-26 01:00:00','METAR WAMH 260100Z 24003KT 6000 SCT018 28/25 Q1010 RERA=',1,'2016-06-26 01:20:01');
INSERT INTO `metar_speci` VALUES ('417736','SA','ID','34','WANK','2011-04-17 06:05:00','','WAFF','2011-04-17 06:00:00','METAR WAML 170600Z 33014KT 8000 RA FEW019 CB SCT020 32/22 Q1007=',NULL,'2014-01-06 04:54:54');
INSERT INTO `metar_speci` VALUES ('290428','SA','ID','34','WANL','2010-12-21 21:00:00','','WAFF','2010-12-21 21:00:00','METAR WAML 212100Z 00000KT 9999 BKN020 23/22 Q1007=',NULL,'2014-01-06 04:54:54');
INSERT INTO `metar_speci` VALUES ('WAMP201503160000SAID35WANP201503160000','SA','ID','35','WANP','2015-03-16 00:00:00','','WAFP','2015-03-16 00:00:00','METAR WAMP 160000Z 00000KT 9999 FEW020 25/23 Q1015=',1,'2015-03-16 00:23:01');
INSERT INTO `metar_speci` VALUES ('WAHS201603262130SAID33WANS201603262130','SA','ID','33','WANS','2016-03-26 21:30:00','','WAHS','2016-03-26 21:30:00','METAR WAHS 262130Z 00000KT 6000 FEW017 26/24 Q1012 NOSIG=',1,'2016-03-26 21:50:01');
INSERT INTO `metar_speci` VALUES ('903384','SA','ID','35','WANW','2012-06-25 00:00:00','','WAFW','2012-06-25 00:00:00','METAR WAMW 250000Z 25009KT 8000 -RA SCT018 25/21 Q1014=',NULL,'2014-01-06 04:54:54');
INSERT INTO `metar_speci` VALUES ('WAPC202203050100SAID35WAOC202203050100','SA','ID','35','WAOC','2022-03-05 01:00:00','','WAPC','2022-03-05 01:00:00','METAR WAPC 050100Z 27005KT 5000 BKN018 OVC080 28/25 Q1008=',1,'2022-03-05 02:15:01');
INSERT INTO `metar_speci` VALUES ('713186','SA','ID','34','WAOI','2012-01-27 01:00:00','','WAGI','2012-01-27 01:00:00','METAR WAOI 270100Z 33008KT 6000 SCT012 27/25 Q1008=',NULL,'2013-12-19 17:15:25');
INSERT INTO `metar_speci` VALUES ('343','SA','ID','??','WAOK','2010-01-18 23:00:00','','WAOK','2010-01-18 23:00:00','METAR WAOK 182300Z 18004KT 8000 SCT017 26/25 Q1010=',NULL,'2013-12-19 17:15:25');
INSERT INTO `metar_speci` VALUES ('WAOM201312190900SAID35WAOM201312190900','SA','ID','35','WAOM','2013-12-19 09:00:00','','WAGK','2013-12-19 09:00:00','METAR WAOM 190900Z 20005KT 9999 FEW016TCU SCT013 32/24 Q1007=',0,'2013-12-19 09:32:01');
INSERT INTO `metar_speci` VALUES ('WAOO201312191200SAID31WAOO201312191200','SA','ID','31','WAOO','2013-12-19 12:00:00','','WAOO','2013-12-19 12:00:00','METAR WAOO 191200Z 00000KT 8000 SCT018 26/24 Q1009 NOSIG=',1,'2013-12-19 12:02:01');
INSERT INTO `metar_speci` VALUES ('WAOP201312190930SAID34WAOP201312190930','SA','ID','34','WAOP','2013-12-19 09:30:00','','WAGG','2013-12-19 09:30:00','METAR WAOP 190930Z 20008KT 6000 FEW010TCU BKN010 28/24 Q1008=',1,'2013-12-19 09:32:01');
INSERT INTO `metar_speci` VALUES ('WAPR201709080500SAID33WAOR201709080500','SA','ID','33','WAOR','2017-09-08 05:00:00','','WAPR','2017-09-08 05:00:00','METAR WAPR 080500Z 11013KT 9999 FEW017 30/23 Q1008=',1,'2017-09-08 05:35:01');
INSERT INTO `metar_speci` VALUES ('WAOS201312191100SAID35WAOS201312191100','SA','ID','35','WAOS','2013-12-19 11:00:00','','WAGS','2013-12-19 11:00:00','METAR WAOS 191100Z 00000KT 5000 -RA FEW009CB SCT010 24/23 Q1008=',1,'2013-12-19 11:06:01');
INSERT INTO `metar_speci` VALUES ('WAOU201312191000SAID35WAOU201312191000','SA','ID','35','WAOU','2013-12-19 10:00:00','','WAGM','2013-12-19 10:00:00','METAR WAOU 191000Z 18011KT 7000 SCT015 FEW016CB 29/25 Q1009=',0,'2013-12-19 10:35:01');
INSERT INTO `metar_speci` VALUES ('WAPA201312191100SAID35WAPA201312191100','SA','ID','35','WAPA','2013-12-19 11:00:00','','WAPA','2013-12-19 11:00:00','METAR WAPA 191100Z 00000KT 8000 BKN017 OVC057 27/24 Q1009=',1,'2013-12-19 11:01:01');
INSERT INTO `metar_speci` VALUES ('333','SA','ID','??','WAPC','2010-01-18 23:00:00','','WAPC','2010-01-18 23:00:00','METAR WAPC 182300Z 00000KT 8000E 05HZ BKN019 28/25 Q1009=',NULL,'2013-12-19 17:15:25');
INSERT INTO `metar_speci` VALUES ('WAPF201507261700SAID35WAPD201507261700','SA','ID','35','WAPD','2015-07-26 17:00:00','','WAPF','2015-07-26 17:00:00','METAR WAPF 261700Z 13004KT 8000 SCT019 24/23 Q1014 NOSIG=',1,'2015-07-26 18:24:01');
INSERT INTO `metar_speci` VALUES ('1118561','SP','ID','33','WAPF','2012-12-22 13:00:00','','WAPF','2012-12-22 13:00:00','SPECI WAPF 221300Z 27037KT 600 RA FEWCB010 BKN011 25/24 Q1009=',NULL,'2013-12-19 17:15:25');
INSERT INTO `metar_speci` VALUES ('38881','SA','ID','??','WAPH','2010-03-04 01:00:00','','WAEL','2010-03-04 01:00:00','METAR WAPH 040100Z 06006KT 9999 SCT018 30/23 Q1010 NOSIG=',NULL,'2013-12-19 17:15:25');
INSERT INTO `metar_speci` VALUES ('36152','SA','ID','??','WAPI','2010-02-28 23:00:00','','WAPI','2010-02-28 23:00:00','METAR WAPI 282300Z 30003KT 9999 SCT018 28/26 Q1011=',NULL,'2013-12-19 17:15:25');
INSERT INTO `metar_speci` VALUES ('WAPL201312191100SAID35WAPL201312191100','SA','ID','35','WAPL','2013-12-19 11:00:00','','WAPL','2013-12-19 11:00:00','METAR WAPL 191100Z 30010KT 6000 FEW017CB BKN018 26/24 Q1007 NOSIG=',1,'2013-12-19 11:04:01');
INSERT INTO `metar_speci` VALUES ('1174812','SA','ID','35','WAPM','2013-02-15 06:00:00','','WAGK','2013-02-15 06:00:00','METAR WAOM 150600Z 00000KT 8000 FEW015TCU BKN012 29/23 Q1008=',NULL,'2014-01-06 04:54:54');
INSERT INTO `metar_speci` VALUES ('164581','SA','ID','??','WAPN','2010-07-31 23:00:00','','WAES','2010-07-31 23:00:00','METAR WAPN 312300Z 00000KT 9999 FEW0120 26/24 Q1012 NOSIG=',NULL,'2013-12-19 17:15:25');
INSERT INTO `metar_speci` VALUES ('WAPP201312191200SAID33WAPP201312191200','SA','ID','33','WAPP','2013-12-19 12:00:00','','WAPP','2013-12-19 12:00:00','METAR WAPP 191200Z 22002KT 8000 BKN016 26/24 Q1009=',1,'2013-12-19 12:02:01');
INSERT INTO `metar_speci` VALUES ('WAPR201312191100SAID33WAPR201312191100','SA','ID','33','WAPR','2013-12-19 11:00:00','','WAPR','2013-12-19 11:00:00','METAR WAPR 191100Z 00000KT 8000 FEW017 SCT018 27/25 Q1008=',1,'2013-12-19 11:12:01');
INSERT INTO `metar_speci` VALUES ('WAPS201506010000SAID35WAPS201506010000','SA','ID','35','WAPS','2015-06-01 00:00:00','','WAPS','2015-06-01 00:00:00','METAR WAPS 010000Z 06007KT 9999 SCT020 29/24 Q1012 NOSIG=',1,'2015-06-01 00:07:01');
INSERT INTO `metar_speci` VALUES ('WAHQ201811031400SAID35WAPT201811031400','SA','ID','35','WAPT','2018-11-03 14:00:00','','WAHQ','2018-11-03 14:00:00','METAR WAHQ 031400Z 26010KT 7000 FEW015 28/24 Q1012 NSG=',0,'2018-11-03 14:04:01');
INSERT INTO `metar_speci` VALUES ('WAWP202109270000SAID35WAPW202109270000','SA','ID','35','WAPW','2021-09-27 00:00:00','','WAWP','2021-09-27 00:00:00','METAR WAWP 270000Z 13002KT 9999 FEW020 29/23 Q1010 NOSIG=',1,'2021-09-27 02:55:01');
INSERT INTO `metar_speci` VALUES ('WAOF201607240600SAID35WAPZ201607240600','SA','ID','35','WAPZ','2016-07-24 06:00:00','','WAOF','2016-07-24 06:00:00','METAR WAOF 240600Z 14009KT 9999 SCT019 28/22 Q1009 NOSIG=',1,'2016-07-24 06:15:01');
INSERT INTO `metar_speci` VALUES ('WAQA201503240600SAID35WAQA201503240600','SA','ID','35','WAQA','2015-03-24 06:00:00','','WAQA','2015-03-24 06:00:00','METAR WAQA 240600Z 12007KT 8000 SCT015 33/24 Q1009=',1,'2015-03-24 06:06:01');
INSERT INTO `metar_speci` VALUES ('WAQM202210252330SAID38WAQC202210252330','SA','ID','38','WAQC','2022-10-25 23:30:00','','WAQM','2022-10-25 23:30:00','METAR WAQM 252330Z 00000KT 4000 BR SCT010 26/26 Q1010=',1,'2022-10-25 23:25:01');
INSERT INTO `metar_speci` VALUES ('WAQD201503241600SAID35WAQD201503241600','SA','ID','35','WAQD','2015-03-24 16:00:00','','WAQD','2015-03-24 16:00:00','METAR WAQD 241600Z 18003KT 8000 SCT015 25/24 Q1012 NOSIG=',1,'2015-03-24 15:58:01');
INSERT INTO `metar_speci` VALUES ('WAQJ201612210300SAID35WAQH201612210300','SA','ID','35','WAQH','2016-12-21 03:00:00','','WAQJ','2016-12-21 03:00:00','METAR WAQJ 210300Z 00000KT 8000 BKN012 24/20 Q1017=',1,'2016-12-21 03:10:01');
INSERT INTO `metar_speci` VALUES ('WALB201503250500SAID35WAQJ201503250500','SA','ID','35','WAQJ','2015-03-25 05:00:00','','WAQJ','2015-03-25 05:00:00','METAR WALB 250500Z 00000KT 9999 SCT017 28/18 Q1018=',1,'2015-03-25 05:08:01');
INSERT INTO `metar_speci` VALUES ('WAQM202104020830SAID35WAQM202104020830','SA','ID','35','WAQM','2021-04-02 08:30:00','','WAQM','2021-04-02 08:30:00','METAR WAQM 020830Z 00000KT 9999 BKN014 31/24 Q1015 NOSIG=',1,'2021-04-02 08:40:02');
INSERT INTO `metar_speci` VALUES ('WAQQ201503060000SAID33WAQQ201503060000','SA','ID','33','WAQQ','2015-03-06 00:00:00','','WAQQ','2015-03-06 00:00:00','METAR WAQQ 060000Z 00000KT 8000 FEW015 25/24 Q1012 NOSIG=',1,'2015-03-06 00:09:01');
INSERT INTO `metar_speci` VALUES ('WAQT201712141500SAID35WAQR201712141500','SA','ID','35','WAQR','2017-12-14 15:00:00','','WAQT','2017-12-14 15:00:00','METAR WAQT 141500Z 00000KT 9000 SCT018 25/24 Q1011=',1,'2017-12-14 14:59:01');
INSERT INTO `metar_speci` VALUES ('WAQT201503130900SAID35WAQT201503130900','SA','ID','35','WAQT','2015-03-13 09:00:00','','WAQT','2015-03-13 09:00:00','METAR WAQT 130900Z 05008KT 9999 NIL SCT018 30/24 Q1013=',0,'2015-03-13 09:05:02');
INSERT INTO `metar_speci` VALUES ('WARA201608120700SAID35WARA201608120700','SA','ID','35','WARA','2016-08-12 07:00:00','','WARA','2016-08-12 07:00:00','METAR WARA 120700Z 27005KT 5000 HZ SCT014 28/23 Q1012=',1,'2016-08-12 12:45:01');
INSERT INTO `metar_speci` VALUES ('WARB201501132300SAID31WARB201501132300','SA','ID','31','WARB','2015-01-13 23:00:00','','WARB','2015-01-13 23:00:00','METAR WARB 132300Z 00000KT 6000 -RA BKN017 25/24 Q1011=',1,'2015-01-13 23:21:01');
INSERT INTO `metar_speci` VALUES ('WARC202112162200SAID33WARC202112162200','SA','ID','33','WARC','2021-12-16 22:00:00','','WARC','2021-12-16 22:00:00','METAR WARC 162200Z 13002KT 6000 FEW014 26/24 Q1010 NOSIG=',1,'2021-12-16 22:00:01');
INSERT INTO `metar_speci` VALUES ('WARE201501140000SAID31WARE201501140000','SA','ID','31','WARE','2015-01-14 00:00:00','','WARE','2015-01-14 00:00:00','METAR WARE 140000Z 00000KT 7000 FEW020 25/24 Q1013=',1,'2015-01-14 00:47:01');
INSERT INTO `metar_speci` VALUES ('WATG202103291400SAID33WARF202103291400','SA','ID','33','WARF','2021-03-29 14:00:00','','WATG','2021-03-29 14:00:00','METAR WATG 291400Z 00000KT 8000 SCT013 21/18 Q1014 NOSIG=',1,'2021-03-29 13:50:01');
INSERT INTO `metar_speci` VALUES ('WAHS201702230400SAID33WARH201702230400','SA','ID','33','WARH','2017-02-23 04:00:00','','WAHS','2017-02-23 04:00:00','METAR WAHS 230400Z 09008KT 8000 FEW015 34/23 Q1009 NOSIG=',1,'2017-02-23 04:20:01');
INSERT INTO `metar_speci` VALUES ('WARI201602170200SAID33WARI201602170200','SA','ID','33','WARI','2016-02-17 02:00:00','','WARI','2016-02-17 02:00:00','METAR WARI 170200Z 00000 6000M NIL FEW018 28/24 Q1015 NOSIG=',0,'2016-02-17 02:15:01');
INSERT INTO `metar_speci` VALUES ('829052','SA','ID','33','WARJ','2012-05-06 07:30:00','','WAHH','2012-05-06 07:30:00','METAR WARJ 060730Z 15005KT 9999 SCT017 30/24 Q1006=',NULL,'2013-12-19 17:15:25');
INSERT INTO `metar_speci` VALUES ('WAPR201312260100SAID33WARP201312260100','SA','ID','33','WARP','2013-12-26 01:00:00','','WAPR','2013-12-26 01:00:00','METAR WAPR 260100Z 34008KT 9000 FEW017 29/26 Q1009 NOSIG=',1,'2013-12-26 01:02:02');
INSERT INTO `metar_speci` VALUES ('WARQ201701030200SAID34WARQ201701030200','SA','ID','34','WARQ','2017-01-03 02:00:00','','WARQ','2017-01-03 02:00:00','METAR WARQ 030200Z 16004KT 7000 SCT015 26/25 Q1010 NOSIG=',1,'2017-01-03 03:00:01');
INSERT INTO `metar_speci` VALUES ('WARR201312191030SAID31WARR201312191030','SA','ID','31','WARR','2013-12-19 10:30:00','','WARR','2013-12-19 10:30:00','METAR WARR 191030Z 28004KT 9999 FEW020 27/23 Q1007=',1,'2013-12-19 10:36:01');
INSERT INTO `metar_speci` VALUES ('WARS201312191030SAID33WARS201312191030','SA','ID','33','WARS','2013-12-19 10:30:00','','WAHS','2013-12-19 10:30:00','METAR WARS 191030Z 17002KT 5000 BKN019 27/25 Q1008 NOSIG=',1,'2013-12-19 10:35:01');
INSERT INTO `metar_speci` VALUES ('WART201403030200SAID33WART201403030200','SA','ID','33','WART','2014-03-03 02:00:00','','WART','2014-03-03 02:00:00','METAR WART 030200Z 00000KT 9999 SCT020 29/26 Q1009 NOSIG=',1,'2014-03-03 02:13:01');
INSERT INTO `metar_speci` VALUES ('WATU201510111300SAID33WARU201510111300','SA','ID','33','WARU','2015-10-11 13:00:00','','WATU','2015-10-11 13:00:00','METAR WATU 111300Z 00000KT 5000 FEW020 27/21 Q1016=',1,'2015-10-11 13:05:01');
INSERT INTO `metar_speci` VALUES ('WARW201901010000SAID31WARW201901010000','SA','ID','31','WARW','2019-01-01 00:00:00','','WARW','2019-01-01 00:00:00','METAR WARW 010000Z 30010KT 8000 BKN016 27/25 Q1009 NOSIG=',1,'2019-01-01 00:28:01');
INSERT INTO `metar_speci` VALUES ('WADY201706132230SAID31WARY201706132230','SA','ID','31','WARY','2017-06-13 22:30:00','','WADY','2017-06-13 22:30:00','METAR WADY 132230Z 00000KT 4000 HZ FEW020 22/22 Q1013=',1,'2017-06-13 22:55:01');
INSERT INTO `metar_speci` VALUES ('WADS201405210600SAID35WASD201405210600','SA','ID','35','WASD','2014-05-21 06:00:00','','WADS','2014-05-21 06:00:00','METAR WADS 210600Z 12007KT 9999 FEW020 33/21 Q1007=',1,'2014-05-21 06:23:01');
INSERT INTO `metar_speci` VALUES ('379','SA','ID','??','WASF','2010-01-18 23:00:00','','WASF','2010-01-18 23:00:00','METAR WASF 182300Z 00000KT 9999 05HZ FEW013 24/23 Q10124=',NULL,'2013-12-19 17:15:25');
INSERT INTO `metar_speci` VALUES ('460342','SA','ID','35','WASG','2011-05-27 04:00:00','','WASF','2011-05-27 04:00:00','METAR WASF 270400Z 00000KT 9999 -RA FEW012CB BKN013 28/25 Q10080=',NULL,'2014-01-06 04:54:54');
INSERT INTO `metar_speci` VALUES ('82899','SA','ID','??','WASK','2010-03-23 22:00:00','','WASK','2010-03-23 22:00:00','METAR WASK 232200Z CALM 80000 HAZE SCT016/017 25/23 Q1010=',NULL,'2013-12-19 17:15:25');
INSERT INTO `metar_speci` VALUES ('417','SA','ID','??','WASR','2010-01-19 01:00:00','','WAUU','2010-01-19 01:00:00','METAR WASR 190100Z 35008KT 9999 HZ SCT014 29/25 Q1011=',NULL,'2013-12-19 17:15:25');
INSERT INTO `metar_speci` VALUES ('WASS201312190930SAID34WASS201312190930','SA','ID','34','WASS','2013-12-19 09:30:00','','WASS','2013-12-19 09:30:00','METAR WASS 190930Z 00000KT 5000 SCT012 29/25 Q1007=',1,'2013-12-19 09:32:01');
INSERT INTO `metar_speci` VALUES ('WASU201708050400SAID31WASU201708050400','SA','ID','31','WASU','2017-08-05 04:00:00','','WASU','2017-08-05 04:00:00','METAR WASU 050400Z 15005KT 9999 SCT018 31/26 Q1009 NOSIG=',1,'2017-08-05 04:20:01');
INSERT INTO `metar_speci` VALUES ('WADY201805200800SAID31WASY201805200800','SA','ID','31','WASY','2018-05-20 08:00:00','','WADY','2018-05-20 08:00:00','METAR WADY 200800Z 12007KT 8000 SCT018 29/25 Q1008=',1,'2018-05-20 08:08:17');
INSERT INTO `metar_speci` VALUES ('WATO201603100000SAID35WAT0201603100000','SA','ID','35','WAT0','2016-03-10 00:00:00','','WATO','2016-03-10 00:00:00','METAR WATO 100000Z 00000KT 9999 FEW020 30/26 Q1011 NOSIG=',1,'2016-03-10 00:20:01');
INSERT INTO `metar_speci` VALUES ('WATA201502060100SAID33WATA201502060100','SA','ID','33','WATA','2015-02-06 01:00:00','','WATA','2015-02-06 01:00:00','METAR WATA 060100Z 29004KT 9999 SCT014 26/22 Q1015 NOSIG=',1,'2015-02-06 01:17:01');
INSERT INTO `metar_speci` VALUES ('WATB202107010600SAID33WATB202107010600','SA','ID','33','WATB','2021-07-01 06:00:00','','WATB','2021-07-01 06:00:00','METAR WATB 010600Z 12004KT 9999 FEW020 29/18 Q1014 NOSIG=',1,'2021-07-01 06:10:02');
INSERT INTO `metar_speci` VALUES ('2354','SA','ID','??','WATC','2010-01-21 07:00:00','','WATC','2010-01-21 07:00:00','METAR WATC 210700Z 15003KT 8000 SCT020 26/25 Q1009 RERA=',NULL,'2013-12-19 17:15:25');
INSERT INTO `metar_speci` VALUES ('WATE201501232300SAID35WATE201501232300','SA','ID','35','WATE','2015-01-23 23:00:00','','WATE','2015-01-23 23:00:00','METAR WATE 232300Z 00000KT 8000 FEW018CB 27/23 Q1009 NOSIG=',1,'2015-01-23 23:33:01');
INSERT INTO `metar_speci` VALUES ('679','SA','ID','??','WATG','2010-01-19 06:00:00','','WATG','2010-01-19 06:00:00','METAR WATG 190600Z 27013KT 2000 -RA SCT012 21/19 Q1009=',NULL,'2013-12-19 17:15:25');
INSERT INTO `metar_speci` VALUES ('WATK201506060000SAID34WATH201506060000','SA','ID','34','WATH','2015-06-06 00:00:00','','WATK','2015-06-06 00:00:00','METAR WATK 060000Z 00000KT 9999 FEW016 24/22 Q1012=',1,'2015-06-06 00:56:01');
INSERT INTO `metar_speci` VALUES ('WATU201902100300SAID33WATI201902100300','SA','ID','33','WATI','2019-02-10 03:00:00','','WATU','2019-02-10 03:00:00','METAR WATU 100300Z 20003KT 9999 FEW020 31/25 Q1012=',1,'2019-02-10 02:55:01');
INSERT INTO `metar_speci` VALUES ('WATK201503070500SAID34WATK201503070500','SA','ID','34','WATK','2015-03-07 05:00:00','','WATK','2015-03-07 05:00:00','METAR WATK 070500Z 24012KT 1000 -RA BKN015 24/23 Q1012=',1,'2015-03-07 04:57:01');
INSERT INTO `metar_speci` VALUES ('522','SA','ID','??','WATL','2010-01-19 03:00:00','','WATL','2010-01-19 03:00:00','METAR WATL 190300Z 27006 9999 FEW020 31/22 Q1008 NOSIG=',NULL,'2013-12-19 17:15:25');
INSERT INTO `metar_speci` VALUES ('307584','SA','ID','33','WATM','2011-01-07 02:00:00','','WATM','2011-01-07 02:00:00','METAR WATM 070200Z 22506KT 9999 BKN016 31/26 Q1007 NOSIG=',NULL,'2013-12-19 17:15:25');
INSERT INTO `metar_speci` VALUES ('6386','SA','ID','??','WATO','2010-01-26 00:00:00','','WATO','2010-01-26 00:00:00','METAR WATO 260000Z 24007KT 9999 SCT 020 28/25 Q1011 NOSIG=',NULL,'2013-12-19 17:15:25');
INSERT INTO `metar_speci` VALUES ('WATR201312191100SAID33WATR201312191100','SA','ID','33','WATR','2013-12-19 11:00:00','','WATR','2013-12-19 11:00:00','METAR WATR 191100Z 00000KT 9999 SCT020 28/25 Q1008 NOSIG=',1,'2013-12-19 11:01:01');
INSERT INTO `metar_speci` VALUES ('WATS201312191100SAID35WATS201312191100','SA','ID','35','WATS','2013-12-19 11:00:00','','WATS','2013-12-19 11:00:00','METAR WATS 191100Z 13004KT 9999 FEW018 29/26 Q1008 NOSIG=',1,'2013-12-19 11:01:01');
INSERT INTO `metar_speci` VALUES ('WATT201312191100SAID33WATT201312191100','SA','ID','33','WATT','2013-12-19 11:00:00','','WATT','2013-12-19 11:00:00','METAR WATT 191100Z 23003KT 8000 FEW016CB BKN015 27/26 Q1008=',0,'2013-12-19 10:59:01');
INSERT INTO `metar_speci` VALUES ('WATU201503060400SAID33WATU201503060400','SA','ID','33','WATU','2015-03-06 04:00:00','','WATU','2015-03-06 04:00:00','METAR WATU 060400Z 04006KT 9999 SCT020 29/25 Q1010=',1,'2015-03-06 04:09:01');
INSERT INTO `metar_speci` VALUES ('697662','SA','ID','35','WAUO','2012-01-07 12:00:00','','WAGM','2012-01-07 12:00:00','METAR WAOU 071200Z 00000KT 7000 FEW013 27/25 Q10101 NOSIG=',NULL,'2014-01-06 04:54:54');
INSERT INTO `metar_speci` VALUES ('WAHS201503310400SAID33WAUS201503310400','SA','ID','33','WAUS','2015-03-31 04:00:00','','WAHS','2015-03-31 04:00:00','METAR WAHS 310400Z 36008KT 7000 SCT018 32/25 Q1010 NOSIG=',1,'2015-03-31 04:17:01');
INSERT INTO `metar_speci` VALUES ('WAUU201503052300SAID35WAUU201503052300','SA','ID','35','WAUU','2015-03-05 23:00:00','','WAUU','2015-03-05 23:00:00','METAR WAUU 052300Z 02002KT 9999 FEW015 25/24 Q1009=',1,'2015-03-05 23:09:01');
INSERT INTO `metar_speci` VALUES ('966236','SA','ID','31','WAVV','2012-08-04 09:00:00','','WABB','2012-08-04 09:00:00','METAR WABB 040900Z 11006KT 9999 FEW017CB FEW020 29/25 Q1008 RMK CB TO N=',NULL,'2014-01-06 04:54:54');
INSERT INTO `metar_speci` VALUES ('1314736','SP','ID','35','WAWA','2013-05-11 00:00:00','','WAWB','2013-05-10 23:58:00','SPECI WAWB 102358Z 07005KT 1000 RA BKN015 28/27 Q1011 RMK=',1,'2014-01-06 04:54:54');
INSERT INTO `metar_speci` VALUES ('374','SA','ID','??','WAWB','2010-01-19 00:00:00','','WAWB','2010-01-19 00:00:00','METAR WAWB 190000Z 06004KT CAVOK 28/25 Q1013 NOSIG=',NULL,'2013-12-19 17:15:25');
INSERT INTO `metar_speci` VALUES ('1346829','SA','ID','33','WAWD','2013-05-29 12:00:00','','WATU','2013-05-29 12:00:00','METAR WADW 291200Z 00000KT 9999 NIHIL FEW020 26/24 Q1011 NOSIG=',NULL,'2014-01-06 04:54:54');
INSERT INTO `metar_speci` VALUES ('WAWW202002280200SAID34WAWE202002280200','SA','ID','34','WAWE','2020-02-28 02:00:00','','WAWW','2020-02-28 02:00:00','METAR WAWW 280200Z 24005KT 9999 SCT017 30/25 Q1011 NOSIG=',1,'2020-02-28 02:00:01');
INSERT INTO `metar_speci` VALUES ('WAJW201312270100SAID35WAWJ201312270100','SA','ID','35','WAWJ','2013-12-27 01:00:00','','WAVV','2013-12-27 01:00:00','METAR WAJW 270100Z 14009KT 9999 SCT014 23/16 Q1005 NOSIG=',1,'2013-12-27 01:04:01');
INSERT INTO `metar_speci` VALUES ('WASK201708212100SAID31WAWK201708212100','SA','ID','31','WAWK','2017-08-21 21:00:00','','WASK','2017-08-21 21:00:00','METAR WASK 212100Z 13007KT 5000 HZ SCT016 25/22 Q1010=',1,'2017-08-21 21:05:01');
INSERT INTO `metar_speci` VALUES ('472025','SA','ID','34','WAWL','2011-06-07 00:15:00','','WAPI','2011-06-07 00:00:00','METAR WAPI 070000Z 13008KT 9999 SCT018 28/22 Q1012=',NULL,'2014-01-06 04:54:54');
INSERT INTO `metar_speci` VALUES ('13692','SA','ID','??','WAWM','2010-02-03 01:55:00','','WAFM','2010-02-01 00:00:00','METAR WAWM 010000Z 12001KT 999 FEW018 SCT90 29/24 Q1011 NOSIG=',NULL,'2013-12-19 17:15:25');
INSERT INTO `metar_speci` VALUES ('571059','SA','ID','35','WAWN','2011-09-12 03:00:00','','WAWB','2011-09-12 03:00:00','METAR WAWB 120300Z 06009KT 9999 SCT016 30/20 Q1013=',NULL,'2014-01-06 04:54:54');
INSERT INTO `metar_speci` VALUES ('WAWM201406200300SAID35WAWP201406200300','SA','ID','35','WAWP','2014-06-20 03:00:00','','WAFM','2014-06-20 03:00:00','METAR WAWM 200300Z 35002KT 9999 FEW018 30/25 Q1013=',1,'2014-06-20 03:09:01');
INSERT INTO `metar_speci` VALUES ('1346261','SA','ID','35','WAWR','2013-05-29 05:00:00','','WAWR','2013-05-29 05:00:00','METAR WAWR 290500Z 00000KT 7000 OVC015 26/24 Q1008=',NULL,'2013-12-19 17:15:25');
INSERT INTO `metar_speci` VALUES ('1189561','SA','ID','34','WAWT','2013-02-24 00:00:00','','WAFT','2013-02-24 00:00:00','METAR WAWT 240000Z 00000KT 0500 FG BKN010 20/18 Q1007 REFG=',0,'2013-12-19 17:15:25');
INSERT INTO `metar_speci` VALUES ('WAWB202006151200SAID35WAWV202006151200','SA','ID','35','WAWV','2020-06-15 12:00:00','','WAWB','2020-06-15 12:00:00','METAR WAWB 151200Z 00000KT 5000 FEW018 26/24 Q1013=',1,'2020-06-15 15:20:23');
INSERT INTO `metar_speci` VALUES ('WAWW201602021200SAID34WAWW201602021200','SA','ID','34','WAWW','2016-02-02 12:00:00','','WAWW','2016-02-02 12:00:00','METAR WAWW 021200Z 00000KT 7000 SCT016 25/25 Q1009 NOSIG=',1,'2016-02-02 13:25:01');
INSERT INTO `metar_speci` VALUES ('WAXX201504241100SAID35WAXX201504241100','SA','ID','35','WAXX','2015-04-24 11:00:00','','WAXX','2015-04-24 11:00:00','METAR WAXX 241100Z 00000KT 8000 SCT019 25/24 Q1009 NOSIG=',1,'2015-04-24 11:25:01');
INSERT INTO `metar_speci` VALUES ('WABT201507200000SAID35WAYE201507200000','SA','ID','35','WAYE','2015-07-20 00:00:00','','WAYE','2015-07-20 00:00:00','METAR WABT 200000Z 00000KT 7000 SCT010 SCT100 20/15 Q1024=',1,'2015-07-20 00:10:02');
INSERT INTO `metar_speci` VALUES ('WAYY201503060300SAID33WAYY201503060300','SA','ID','33','WAYY','2015-03-06 03:00:00','','WAYY','2015-03-06 03:00:00','METAR WAYY 060300Z 30004KT 8000 SCT014 30/24 Q1009=',1,'2015-03-06 03:15:01');
INSERT INTO `metar_speci` VALUES ('WABO201407300000SAID31WBAO201407300000','SA','ID','31','WBAO','2014-07-30 00:00:00','','WABO','2014-07-30 00:00:00','METAR WABO 300000Z 34003KT 9000 SCT14 26/24 Q1012 NOSIG=',0,'2014-07-30 00:06:01');
INSERT INTO `metar_speci` VALUES ('WIBB201510022230SAID32WBIB201510022230','SA','ID','32','WBIB','2015-10-02 22:30:00','','WIBB','2015-10-02 22:30:00','METAR WIBB 022230Z 00000KT 1000 FU VV009 22/22 Q1011=',1,'2015-10-02 22:50:01');
INSERT INTO `metar_speci` VALUES ('301343','SA','ID','35','WDAB','2011-01-01 01:00:00','','WADB','2011-01-01 01:00:00','METAR WADB 010100Z 36004KT 2000 RA FEW013 BKN017 Q1005 RA=',NULL,'2014-01-06 04:54:54');
INSERT INTO `metar_speci` VALUES ('WADW201401060400SAID53WDAW201401060400','SA','ID','53','WDAW','2014-01-06 04:00:00','','WATU','2014-01-06 04:00:00','METAR WADW 060400Z 01008KT 9999 FEW020 31/25 Q1008=',1,'2014-01-06 03:57:01');
INSERT INTO `metar_speci` VALUES ('WAEG202005140000SAID35WEAG202005140000','SA','ID','35','WEAG','2020-05-14 00:00:00','','WAEG','2020-05-14 00:00:00','METAR WAEG 140000Z CAVOK 29/27 Q1009=',1,'2020-05-14 00:05:01');
INSERT INTO `metar_speci` VALUES ('WAEL201702031700SAID35WEAL201702031700','SA','ID','35','WEAL','2017-02-03 17:00:00','','WAEL','2017-02-03 17:00:00','METAR WAEL 031700Z 00000KT 9000 FEW017CB SCT018 24/25 Q1008=',1,'2017-02-03 19:10:02');
INSERT INTO `metar_speci` VALUES ('WAES201601070400SAID35WEAS201601070400','SA','ID','35','WEAS','2016-01-07 04:00:00','','WAES','2016-01-07 04:00:00','METAR WAES 070400Z 14003KT 9999 SCT020 33/24 Q1012=',1,'2016-01-07 05:10:01');
INSERT INTO `metar_speci` VALUES ('WAEW201804131200SAID35WEAW201804131200','SA','ID','35','WEAW','2018-04-13 12:00:00','','WAEW','2018-04-13 12:00:00','METAR WAEW 131200Z 02003KT 9000 FEW015 CB, FEW018 27/25 Q1009 REMAKS CB TO SOUTH WEASTH=',0,'2018-04-13 12:08:01');
INSERT INTO `metar_speci` VALUES ('WAFL201812262000SAID35WEFL201812262000','SA','ID','35','WEFL','2018-12-26 20:00:00','','WAFL','2018-12-26 20:00:00','METAR WAFL 262000Z 09003KT 8000 FEW020 24/21 Q1006=',1,'2018-12-26 20:08:01');
INSERT INTO `metar_speci` VALUES ('WIJI201611121400SAID35WEJI201611121400','SA','ID','35','WEJI','2016-11-12 14:00:00','','WIJI','2016-11-12 14:00:00','METAR WIJI 121400Z 12005KT 4000 SCT014 22/21 Q1015 NOSIG=',1,'2016-11-12 14:05:01');
INSERT INTO `metar_speci` VALUES ('WARA202011270700SAID35WERA202011270700','SA','ID','35','WERA','2020-11-27 07:00:00','','WARA','2020-11-27 07:00:00','METAR WARA 270700Z 07005KT 7000 SCT015 27/21 Q1011 NOSIG=',1,'2020-11-27 06:55:01');
INSERT INTO `metar_speci` VALUES ('WARI201808060700SAID35WERI201808060700','SA','ID','35','WERI','2018-08-06 07:00:00','','WARI','2018-08-06 07:00:00','METAR WARI 060700Z 20008KT 8000 NSC 31/16 Q1010 NOSIG=',1,'2018-08-06 07:04:14');
INSERT INTO `metar_speci` VALUES ('WASF201509260800SAID35WESF201509260800','SA','ID','35','WESF','2015-09-26 08:00:00','','WASF','2015-09-26 08:00:00','METAR WASF 260800Z 16005KT 4000 SCT011 SCT014 25/23 Q1010=',1,'2015-09-26 08:15:01');
INSERT INTO `metar_speci` VALUES ('WAFL202001150400SAID35WFAL202001150400','SA','ID','35','WFAL','2020-01-15 04:00:00','','WAFL','2020-01-15 04:00:00','METAR WAFL 150400Z 28006KT 9999 FEW020 30/25 Q1010 NOSIG=',1,'2020-01-15 04:10:01');
INSERT INTO `metar_speci` VALUES ('WIHL201501140100SAID34WHIL201501140100','SA','ID','34','WHIL','2015-01-14 01:00:00','','WAHL','2015-01-14 01:00:00','METAR WIHL 140100Z 29005KT 8000 SCT015 25/24 Q1011=',1,'2015-01-14 01:21:01');
INSERT INTO `metar_speci` VALUES ('WI00201507070400SAID32WI00201507070400','SA','ID','32','WI00','2015-07-07 04:00:00','','WI00','2015-07-07 04:00:00','METAR WI00 070400Z 12005KT 9999 FEW013 32/22 Q1008 NOSIG=',1,'2015-07-07 04:17:01');
INSERT INTO `metar_speci` VALUES ('WIOG201611090100SAID35WI0G201611090100','SA','ID','35','WI0G','2016-11-09 01:00:00','','WIOG','2016-11-09 01:00:00','METAR WIOG 090100Z 07003KT 9999 SCT010 25/23 Q1014=',1,'2016-11-09 01:25:02');
INSERT INTO `metar_speci` VALUES ('WIOH201703140600SAID32WI0H201703140600','SA','ID','32','WI0H','2017-03-14 06:00:00','','WIOH','2017-03-14 06:00:00','METAR WIOH 140600Z 29007KT 9999 FEW014 32/24 Q1011=',1,'2017-03-14 06:10:01');
INSERT INTO `metar_speci` VALUES ('WIOI202302070500SAID62WI0I202302070500','SA','ID','62','WI0I','2023-02-07 05:00:00','','WIOI','2023-02-07 05:00:00','METAR WIOI 070500Z 26004KT 6000 SCT015 30/23 Q1012=',1,'2023-02-07 05:35:01');
INSERT INTO `metar_speci` VALUES ('WIOS201403300500SAID35WI0S201403300500','SA','ID','35','WI0S','2014-03-30 05:00:00','','WIOS','2014-03-30 05:00:00','METAR WIOS 300500Z 00000KT 8000 BKN012 33/25 Q1009=',1,'2014-03-30 05:03:01');
INSERT INTO `metar_speci` VALUES ('WIII201603180330SAID31WI11201603180330','SA','ID','31','WI11','2016-03-18 03:30:00','','WIII','2016-03-18 03:30:00','METAR WIII 180330Z VRB05KT 8000 SCT018 BKN020 28/25 Q1011 NOSIG=',1,'2016-03-18 03:55:01');
INSERT INTO `metar_speci` VALUES ('488458','SA','ID','34','WIAP','2011-06-24 06:00:00','','WIJJ','2011-06-24 06:00:00','METAR WIPA 240600Z 16009KT 9999 FEW014CB SCT014 31/25 Q1006 CB TO E=',NULL,'2014-01-06 04:54:54');
INSERT INTO `metar_speci` VALUES ('WIBB201312190930SAID32WIBB201312190930','SA','ID','32','WIBB','2013-12-19 09:30:00','','WIBB','2013-12-19 09:30:00','METAR WIBB 190930Z 07006KT 7000 -RA FEW016CB SCT015 24/22 Q1006=',0,'2013-12-19 09:34:01');
INSERT INTO `metar_speci` VALUES ('WIBJ201505280900SAID34WIBJ201505280900','SA','ID','34','WIBJ','2015-05-28 09:00:00','','WIBJ','2015-05-28 09:00:00','METAR WIBJ 280900Z 09004KT 8000 SCT015 33/23 Q1007=',1,'2015-05-28 09:08:01');
INSERT INTO `metar_speci` VALUES ('26098','SA','ID','??','WIBM','2010-02-17 00:00:00','','WIBM','2010-02-17 00:00:00','METAR WIBM 170000Z 00000KT 6000 HZ SCT013 CB 25/24 Q1010 NOSIG=',NULL,'2013-12-19 17:15:25');
INSERT INTO `metar_speci` VALUES ('WIPB202301300030SAID34WIBP202301300030','SA','ID','34','WIBP','2023-01-30 00:30:00','','WIPB','2023-01-30 00:30:00','METAR WIPB 300030Z 00000KT 5000 HZ BKN010 24/23 Q1011=',1,'2023-01-30 00:45:01');
INSERT INTO `metar_speci` VALUES ('WIMS201501270000SAID34WIBS201501270000','SA','ID','34','WIBS','2015-01-27 00:00:00','','WIMS','2015-01-27 00:00:00','METAR WIMS 270000Z 00000KT 3000 RA SCT0100 23/22 Q1011=',0,'2015-01-27 00:17:02');
INSERT INTO `metar_speci` VALUES ('1364788','SA','ID','35','WIBT','2013-06-09 00:00:00','','WIDT','2013-06-09 00:00:00','METAR WIBT 090000Z 00000KT 5000 TS RA SCT CB014 25/24 Q1009=',0,'2013-12-19 17:15:25');
INSERT INTO `metar_speci` VALUES ('WICA201804130630SAID35WICA201804130630','SA','ID','35','WICA','2018-04-13 06:30:00','','WICA','2018-04-13 06:30:00','METAR WICA 130630Z AUTO 05005KT 360V100 //// FEW035 33/25 Q1003=',1,'2018-04-13 06:32:01');
INSERT INTO `metar_speci` VALUES ('WICB201312191500SAID34WICB201312191500','SA','ID','34','WICB','2013-12-19 15:00:00','','WIRR','2013-12-19 15:00:00','METAR WICB 191500Z 00000KT 7000 SCT018 24/23 Q1010=',1,'2013-12-19 15:52:02');
INSERT INTO `metar_speci` VALUES ('WICC201601270100SAID32WICC201601270100','SA','ID','32','WICC','2016-01-27 01:00:00','','WICC','2016-01-27 01:00:00','METAR WICC 270100Z 00000KT 2500 HZ FEW018 24/22 Q1017 =',0,'2016-01-27 01:45:01');
INSERT INTO `metar_speci` VALUES ('WICD201606060700SAID35WICD201606060700','SA','ID','35','WICD','2016-06-06 07:00:00','','WICD','2016-06-06 07:00:00','METAR WICD 060700Z 10806KT 8000 SCT020 33/23 Q1010=',1,'2016-06-06 07:40:01');
INSERT INTO `metar_speci` VALUES ('WICS202012050300SAID35WICE202012050300','SA','ID','35','WICE','2020-12-05 03:00:00','','WICS','2020-12-05 03:00:00','METAR WICS 050300Z 26010KT 8000 FEW020 29/23 Q1009 N0SIG=',0,'2020-12-05 03:00:01');
INSERT INTO `metar_speci` VALUES ('960023','SA','ID','34','WICM','2012-07-31 06:00:00','','WIRR','2012-07-31 06:00:00','METAR WICB 310600Z 28006KT 5000 HZ FEWCB018 SCTTCU018 32/21 Q1011=',NULL,'2014-01-06 04:54:54');
INSERT INTO `metar_speci` VALUES ('WICN202010020600SAID34WICN202010020600','SA','ID','34','WICN','2020-10-02 06:00:00','','WICN','2020-10-02 06:00:00','METAR WICN 020600Z AUTO 14008KT //// ////// 29/28 Q1009=',1,'2020-10-02 06:10:01');
INSERT INTO `metar_speci` VALUES ('WICS201702010000SAID35WICS201702010000','SA','ID','35','WICS','2017-02-01 00:00:00','','WICS','2017-02-01 00:00:00','METAR WICS 010000Z 00000KT 8000 SCT015 24/22 Q1011=',1,'2017-02-01 00:35:01');
INSERT INTO `metar_speci` VALUES ('428213','SA','ID','33','WICT','2011-04-27 02:00:00','','WILL','2011-04-27 02:00:00','METAR WICT 270200Z 00000KT 8000 BKN010 27/24 Q1011=',NULL,'2013-12-19 17:15:25');
INSERT INTO `metar_speci` VALUES ('WICS202203080000SAID35WICW202203080000','SA','ID','35','WICW','2022-03-08 00:00:00','','WICS','2022-03-08 00:00:00','METAR WICS 080000Z 10002KT 9999 FEW020 23/23 Q1009 NOSIG=',1,'2022-03-07 23:55:02');
INSERT INTO `metar_speci` VALUES ('820178','SA','ID','35','WIDA','2012-04-29 01:00:00','','WIDS','2012-04-29 01:00:00','METAR WIDS 290100Z 00000KT 9999 SCT017 27/25 Q1010=',NULL,'2014-01-06 04:54:54');
INSERT INTO `metar_speci` VALUES ('34','SA','ID','??','WIDB','2010-01-18 09:00:00','','WIDB','2010-01-18 09:00:00','METAR WIDB 180900Z 30015KT CAVOK 28/23 Q1009=',NULL,'2013-12-19 17:15:25');
INSERT INTO `metar_speci` VALUES ('WIDD201312191100SAID31WIDD201312191103','SA','ID','31','WIDD','2013-12-19 11:03:00','','WIDD','2013-12-19 11:00:00','METAR WIDD 191100Z 36006KT 9999 SCT014 27/23 Q1009 NOSIG=',1,'2013-12-19 11:07:01');
INSERT INTO `metar_speci` VALUES ('627995','SA','ID','31','WIDE','2011-11-03 22:00:00','','WIDD','2011-11-03 22:00:00','METAR WIDD 032200Z 27013KT 9000 FEW020CB SCT015 26/23 Q1008 NOSIG=',0,'2014-01-06 04:54:54');
INSERT INTO `metar_speci` VALUES ('1341292','SA','ID','35','WIDG','2013-05-26 09:00:00','','WIOG','2013-05-26 09:00:00','METAR WIOG 260900Z 31007KT 3000 -RA FEW012CB SCT013 OVC100 27/23 Q1008=',NULL,'2014-01-06 04:54:54');
INSERT INTO `metar_speci` VALUES ('WIDM201805261500SAID32WIDM201805261500','SA','ID','32','WIDM','2018-05-26 15:00:00','','WIDM','2018-05-26 15:00:00','METAR WIDM 261500Z 00000KT 8000 FEW015 25/24 Q1010 NOIG=',NULL,'2018-05-26 15:00:01');
INSERT INTO `metar_speci` VALUES ('WIDN201312191000SAID32WIDN201312191000','SA','ID','32','WIDN','2013-12-19 10:00:00','','WIDN','2013-12-19 10:00:00','METAR WIDN 191000Z 01009KT 8000 SCT012 FEW020CB 27/24 Q1008=',1,'2013-12-19 11:09:01');
INSERT INTO `metar_speci` VALUES ('WIDO201808250230SAID34WIDO201808250230','SA','ID','34','WIDO','2018-08-25 02:30:00','','WIDO','2018-08-25 02:30:00','METAR WIDO 250230Z 24004KT 8000 SCT014 30/26 Q1010 NOSIG=',1,'2018-08-25 02:32:01');
INSERT INTO `metar_speci` VALUES ('WIDT201603230000SAID33WIDR201603230000','SA','ID','33','WIDR','2016-03-23 00:00:00','','WIDT','2016-03-23 00:00:00','METAR WIDT 230000Z 28001KT 6000 FEW016 27/26 Q1009 NOSIG=',1,'2016-03-23 00:15:02');
INSERT INTO `metar_speci` VALUES ('3763','SA','ID','??','WIDS','2010-01-23 00:55:00','','WIDS','2010-01-23 01:00:00','METAR WIDS 230100Z 36006KT 9999 SCT017 27/25 Q1012=',NULL,'2013-12-19 17:15:25');
INSERT INTO `metar_speci` VALUES ('437834','SA','ID','35','WIDT','2011-05-06 00:00:00','','WIDT','2011-05-06 00:00:00','METAR WIDT 060000Z 00000KT 7000 FEW020 28/26 Q1011=',NULL,'2013-12-19 17:15:25');
INSERT INTO `metar_speci` VALUES ('WIDT201709250517SPID33WIDY201709250517','SP','ID','33','WIDY','2017-09-25 05:17:00','','WIDT','2017-09-25 05:17:00','SPECI WIDT 250517Z 00000KT 7000 -RA SCT020CB BKN100 30/25 Q1009=',1,'2017-09-25 05:20:01');
INSERT INTO `metar_speci` VALUES ('WIEE201503050300SAID32WIEE201503050300','SA','ID','32','WIEE','2015-03-05 03:00:00','','WIEE','2015-03-05 03:00:00','METAR WIEE 050300Z 33005KT 270V020 9999 FEW022 31/21 Q1012=',1,'2015-03-05 03:04:01');
INSERT INTO `metar_speci` VALUES ('1285496','SA','ID','35','WIGG','2013-04-20 07:00:00','','WIOG','2013-04-20 07:00:00','METAR WIOG 200700Z 00000KT 9999 SCT013 35/24 Q1005=',NULL,'2014-01-06 04:54:54');
INSERT INTO `metar_speci` VALUES ('74738','SA','ID','??','WIHH','2010-04-13 12:00:00','','WIHH','2010-04-13 13:00:00','METAR WIHH 131300Z 26005KT 4000 HZ BKN020 28/25 Q1010 NIL=',NULL,'2013-12-19 17:15:25');
INSERT INTO `metar_speci` VALUES ('WIHJ201610140600SAID34WIHJ201610140600','SA','ID','34','WIHJ','2016-10-14 06:00:00','','WIHJ','2016-10-14 06:00:00','METAR WIHJ 140600Z 27007KT 6000 SCT017 28/23 Q1007 NOSIG=',1,'2016-10-14 06:25:01');
INSERT INTO `metar_speci` VALUES ('WIHH201403190400SAID34WIHK201403190400','SA','ID','34','WIHK','2014-03-19 04:00:00','','WIHH','2014-03-19 04:00:00','METAR WIHH 190400Z 27007KT 7000 SCT015 31/23 Q102=',0,'2014-03-19 04:18:01');
INSERT INTO `metar_speci` VALUES ('WIHL201501060900SAID34WIHL201501060900','SA','ID','34','WIHL','2015-01-06 09:00:00','','WAHL','2015-01-06 09:00:00','METAR WIHL 060900Z 22007 KT 9999 FEW2000 30/27 Q1006=',0,'2015-01-06 09:40:01');
INSERT INTO `metar_speci` VALUES ('WIHP202112140730SAID35WIHP202112140730','SA','ID','35','WIHP','2021-12-14 07:30:00','','WIHP','2021-12-14 07:30:00','METAR WIHP 140730Z 20003KT 7000 SCT018 30/24 Q1005 NOSIG=',1,'2021-12-14 07:30:01');
INSERT INTO `metar_speci` VALUES ('WICC201806270400SAID32WIIC201806270400','SA','ID','32','WIIC','2018-06-27 04:00:00','','WICC','2018-06-27 04:00:00','METAR WICC 270400Z 09010KT CAVOK 27/18 Q1015 NOSIG=',1,'2018-06-27 04:04:01');
INSERT INTO `metar_speci` VALUES ('527400','SA','ID','31','WIID','2011-08-04 03:30:00','','WIDD','2011-08-04 03:30:00','METAR WIDD 040330Z 26003KT 2500 TSRA FEW013CB OVC010 24/3 Q1012 CB OVER THE FIELD=',0,'2014-01-06 04:54:54');
INSERT INTO `metar_speci` VALUES ('WIIH201803240100SAID35WIIH201803240100','SA','ID','35','WIIH','2018-03-24 01:00:00','','WIIH','2018-03-24 01:00:00','METAR WIIH 240100Z 14003KT 2000 BR -RA SCT014 26/24 Q1012 NOSIG=',NULL,'2018-03-24 01:48:02');
INSERT INTO `metar_speci` VALUES ('WIII201312190923SPID99WIII201312190923','SP','ID','99','WIII','2013-12-19 09:23:00','','WIII','2013-12-19 09:23:00','SPECI WIII 190923Z 26016KT 3000 RA SCT019CB BKN021 28/23 Q1007 RMK CB TO S=',1,'2013-12-19 09:32:01');
INSERT INTO `metar_speci` VALUES ('WIHL201501060900SAID34WIIL201501060900','SA','ID','34','WIIL','2015-01-06 09:00:00','','WAHL','2015-01-06 09:00:00','METAR WIHL 060900Z 22007KT 9999 FEW020 30/27 Q1006=',1,'2015-01-06 10:03:01');
INSERT INTO `metar_speci` VALUES ('1663094','SA','ID','33','WIIS','2013-12-02 08:30:00','','WIIS','2013-12-02 08:30:00','METAR WIIS 020830Z 30010KT 7000 FEW018CB BKN020 31/23 Q1006=',NULL,'2013-12-19 17:15:25');
INSERT INTO `metar_speci` VALUES ('55692','SA','ID','??','WIIT','2010-03-24 03:00:00','','WIIT','2010-03-24 03:00:00','METAR WIIT 240300Z 210/05KT 9999 FEW015 31/24 Q1009=',NULL,'2013-12-19 17:15:25');
INSERT INTO `metar_speci` VALUES ('851157','SA','ID','33','WIIX','2012-05-24 01:00:00','','WIIX','2012-05-24 01:00:00','METAR WIIX 240100Z 18017KT 9999 SCT020 BKN099 28/23 Q1011=',NULL,'2013-12-19 17:15:25');
INSERT INTO `metar_speci` VALUES ('WIJI201610230400SAID35WIJ1201610230400','SA','ID','35','WIJ1','2016-10-23 04:00:00','','WIJI','2016-10-23 04:00:00','METAR WIJI 230400Z 33006KT 7000 BKN016 26/19 Q1014=',1,'2016-10-23 04:10:01');
INSERT INTO `metar_speci` VALUES ('WIBJ201806210000SAID34WIJB201806210000','SA','ID','34','WIJB','2018-06-21 00:00:00','','WIBJ','2018-06-21 00:00:00','METAR WIBJ 210000Z 00000KT 5000 HZ SCT015 24/23 Q1010=',1,'2018-06-21 00:04:01');
INSERT INTO `metar_speci` VALUES ('WIJI201503240400SAID35WIJI201503240400','SA','ID','35','WIJI','2015-03-24 04:00:00','','WIJI','2015-03-24 04:00:00','METAR WIJI 240400Z 15004KT 6000 SCT015 24/20 Q1017=',1,'2015-03-24 04:16:01');
INSERT INTO `metar_speci` VALUES ('WIJJ201503060000SAID34WIJJ201503060000','SA','ID','34','WIJJ','2015-03-06 00:00:00','','WIJJ','2015-03-06 00:00:00','METAR WIJJ 060000Z 14003KT 7000 FEW015 23/21 Q1011 NOSIG=',1,'2015-03-06 00:06:02');
INSERT INTO `metar_speci` VALUES ('WIKK201503060400SAID34WIKK201503060400','SA','ID','34','WIKK','2015-03-06 04:00:00','','WIKK','2015-03-06 04:00:00','METAR WIKK 060400Z 25004KT 9999 FEW016 29/23 Q1012=',1,'2015-03-06 04:03:01');
INSERT INTO `metar_speci` VALUES ('WIKT201503051200SAID35WIKT201503051200','SA','ID','35','WIKT','2015-03-05 12:00:00','','WIKT','2015-03-05 12:00:00','METAR WIKT 051200Z 35004KT 9999 SCT020 26/24 Q1011=',1,'2015-03-05 12:04:01');
INSERT INTO `metar_speci` VALUES ('706298','SA','ID','31','WILD','2012-01-17 04:00:00','','WIDD','2012-01-17 04:00:00','METAR WIDD 170400Z 06010KT 9000 SCT018 30/24 Q1008 NOSIG=',1,'2014-01-06 04:54:54');
INSERT INTO `metar_speci` VALUES ('WILL201503060200SAID33WILL201503060200','SA','ID','33','WILL','2015-03-06 02:00:00','','WILL','2015-03-06 02:00:00','METAR WILL 060200Z 00000KT 8000 BKN010 24/23 Q1013=',1,'2015-03-06 02:16:01');
INSERT INTO `metar_speci` VALUES ('WILM201702211200SAID31WILM201702211200','SA','ID','31','WILM','2017-02-21 12:00:00','','WILM','2017-02-21 12:00:00','METAR WILM 211200Z 30005KT 2000 HZ BKN016 24/22 Q1009=',1,'2017-02-21 12:20:02');
INSERT INTO `metar_speci` VALUES ('WIMA201507060400SAID35WIMA201507060400','SA','ID','35','WIMA','2015-07-06 04:00:00','','WIMA','2015-07-06 04:00:00','METAR WIMA 060400Z 33002KT 8000 SCT015TCU 31/25 Q1008=',1,'2015-07-06 04:09:01');
INSERT INTO `metar_speci` VALUES ('WIMB201312191200SAID35WIMB201312191200','SA','ID','35','WIMB','2013-12-19 12:00:00','','WIMB','2013-12-19 12:00:00','METAR WIMB 191200Z 14004KT 5000 HZ FEW014 29/23 Q1007=',1,'2013-12-19 12:04:01');
INSERT INTO `metar_speci` VALUES ('1625115','SA','ID','35','WIMD','2013-11-09 01:00:00','','WIMD','2013-11-09 01:00:00','METAR WIMD 090100Z 00000KT 6000 FEW016CB SCT017 25/24 Q1009=',NULL,'2013-12-19 17:15:25');
INSERT INTO `metar_speci` VALUES ('7','SA','ID','??','WIME','2010-01-18 08:00:00','','WIME','2010-01-18 08:00:00','METAR WIME 180800Z 10008KT 9999 FEW016CB BKN018 27/23 Q1010=',NULL,'2013-12-19 17:15:25');
INSERT INTO `metar_speci` VALUES ('970322','SA','ID','32','WIMG','2012-08-07 06:00:00','','WIEE','2012-08-07 06:00:00','METAR WIPT 070600Z 23005KT 180V300 9999 FEW020 30/23 Q1012=',NULL,'2014-01-06 04:54:54');
INSERT INTO `metar_speci` VALUES ('WIMK201702140000SAID34WIMK201702140000','SA','ID','34','WIMK','2017-02-14 00:00:00','','WIMK','2017-02-14 00:00:00','METAR WIMK 140000Z 27003KT 5000 HZ FEW017CB BKN018 25/23 Q1013 REMAK CB TO E=',0,'2017-02-14 00:45:01');
INSERT INTO `metar_speci` VALUES ('505','SA','ID','??','WIMM','2010-01-19 02:30:00','','WIMM','2010-01-19 02:30:00','METAR WIMM 190230Z 00000KT 50000 SCT017 26/23 Q1013 NOSIG=',NULL,'2013-12-19 17:15:25');
INSERT INTO `metar_speci` VALUES ('917238','SA','ID','35','WIMN','2012-07-03 09:00:00','','WIMB','2012-07-03 09:00:00','METAR WIMB 32008 9999 FEW017CB SE7018 29/24 Q1006=',NULL,'2014-01-06 04:54:54');
INSERT INTO `metar_speci` VALUES ('WIMS201409200300SAID34WIMS201409200300','SA','ID','34','WIMS','2014-09-20 03:00:00','','WIMS','2014-09-20 03:00:00','METAR WIMS 200300Z 00000KT 3000 HZ SCT015CB 26/24 Q1011=',1,'2014-09-20 03:14:01');
INSERT INTO `metar_speci` VALUES ('WIMB202210190530SAID35WINB202210190530','SA','ID','35','WINB','2022-10-19 05:30:00','','WIMB','2022-10-19 05:30:00','METAR WIMB 190530Z 36005KT 9999 SCT016 31/27 Q1010 NOSIG=',1,'2022-10-19 05:25:01');
INSERT INTO `metar_speci` VALUES ('WIDN201612181130SAID32WIND201612181130','SA','ID','32','WIND','2016-12-18 11:30:00','','WIDN','2016-12-18 11:30:00','METAR WIDN 181130Z 02002T 9999 FEW013 28/25 Q1010 NOSIG=',0,'2016-12-18 11:40:01');
INSERT INTO `metar_speci` VALUES ('WIJI201609052100SAID35WINI201609052100','SA','ID','35','WINI','2016-09-05 21:00:00','','WIJI','2016-09-05 21:00:00','METAR WIJI 052100Z 00000KT 4000 SCT015 18/18 Q1016=',1,'2016-09-05 21:55:01');
INSERT INTO `metar_speci` VALUES ('WIOS201611210630SAID32WIO0201611210630','SA','ID','32','WIO0','2016-11-21 06:30:00','','WIOS','2016-11-21 06:30:00','METAR WIOS 210630Z 23009KT 9999 SCT012 29/25 Q1005 NOSIG=',1,'2016-11-21 06:40:01');
INSERT INTO `metar_speci` VALUES ('1088884','SA','ID','35','WIOA','2012-12-01 09:00:00','','WIOS','2012-12-01 09:00:00','METAR WIOS 010900Z 26003KT 9000 BKN012 32/25 Q1007=',NULL,'2014-01-06 04:54:54');
INSERT INTO `metar_speci` VALUES ('610915','SA','ID','35','WIOB','2011-10-19 00:00:00','','WIOB','2011-10-19 00:00:00','METAR WIOB 190000Z 00000KT 8000 FEW020 24/23 Q1008=',NULL,'2013-12-19 17:15:25');
INSERT INTO `metar_speci` VALUES ('WIOD201312191000SAID35WIOD201312191000','SA','ID','35','WIOD','2013-12-19 10:00:00','','WIKT','2013-12-19 10:00:00','METAR WIOD 191000Z 34005KT 9999 SCT020 29/25 Q1007=',1,'2013-12-19 11:05:02');
INSERT INTO `metar_speci` VALUES ('362','SA','ID','??','WIOG','2010-01-19 00:00:00','','WIOG','2010-01-19 00:00:00','METAR WIOG 190000Z 00000KT 5000M HZ BKN012CB 24/24 Q1010=',NULL,'2013-12-19 17:15:25');
INSERT INTO `metar_speci` VALUES ('WIOH201406080300SAID32WIOH201406080300','SA','ID','32','WIOH','2014-06-08 03:00:00','','WIOH','2014-06-08 03:00:00','METAR WIOH 080300Z 24003KT 9999 SCT013 31/25 Q1008=',1,'2014-06-08 03:54:01');
INSERT INTO `metar_speci` VALUES ('WIOI201702010000SAID35WIOI201702010000','SA','ID','35','WIOI','2017-02-01 00:00:00','','WIOI','2017-02-01 00:00:00','METAR WIOI 010000Z 00000KT 6000 BKN010 24/23 Q1004=',1,'2017-02-01 00:40:01');
INSERT INTO `metar_speci` VALUES ('681','SA','ID','??','WIOK','2010-01-19 06:00:00','','WIOK','2010-01-19 06:00:00','METAR WIOK 190600Z 35006KT 9999 FEW012 30/24 Q1011 NOSIG=',NULL,'2013-12-19 17:15:25');
INSERT INTO `metar_speci` VALUES ('WICM201702050700SAID32WIOM201702050700','SA','ID','32','WIOM','2017-02-05 07:00:00','','WICM','2017-02-05 07:00:00','METAR WICM 050700Z 00000KT 7000 SCT017 31/20 Q1007 NSG=',0,'2017-02-05 07:25:01');
INSERT INTO `metar_speci` VALUES ('WION201809111200SAID34WION201809111200','SA','ID','34','WION','2018-09-11 12:00:00','','WION','2018-09-11 12:00:00','METAR WION 111200Z 18012KT 5000 +RA BKN012 26/24 Q1010=',1,'2018-09-11 12:24:01');
INSERT INTO `metar_speci` VALUES ('WIOO201312190930SAID32WIOO201312190930','SA','ID','32','WIOO','2013-12-19 09:30:00','','WIOO','2013-12-19 09:30:00','METAR WIOO 190930Z 30008KT 9999 FEW011CB FEW012 28/24 Q1007 NOSIG=',1,'2013-12-19 09:32:01');
INSERT INTO `metar_speci` VALUES ('WIOP201312191200SAID35WIOP201312191200','SA','ID','35','WIOP','2013-12-19 12:00:00','','WIOP','2013-12-19 12:00:00','METAR WIOP 191200Z 25003 2000 -RA SCT009 BKN070 25/23 Q1010=',0,'2013-12-19 12:04:01');
INSERT INTO `metar_speci` VALUES ('547126','SA','ID','35','WIOR','2011-08-21 09:00:00','','WIOG','2011-08-21 09:00:00','METAR WIOG 210900Z 27006KT 9999 SCT013 BKN100 32/23 Q1007=',NULL,'2014-01-06 04:54:54');
INSERT INTO `metar_speci` VALUES ('19','SA','ID','??','WIOS','2010-01-18 08:10:00','','WIOS','2010-01-18 08:00:00','METAR WIOS 180800Z 27006KT 7000 PREC IN SIGHHT 16 FEWCB 015/SCT012CU 30/24 Q1009=',NULL,'2013-12-19 17:15:25');
INSERT INTO `metar_speci` VALUES ('WIOZ201604210610SPID35WIOZ201604210610','SP','ID','35','WIOZ','2016-04-21 06:10:00','','WIOZ','2016-04-21 06:10:00','SPECI WIOZ 210610Z 24005KT 9999 TS FEW011CB 31/25 Q1009 =',0,'2016-04-21 06:30:01');
INSERT INTO `metar_speci` VALUES ('WIPA201312191400SAID34WIPA201312191400','SA','ID','34','WIPA','2013-12-19 14:00:00','','WIJJ','2013-12-19 14:00:00','METAR WIPA 191400Z 0000KT 4000 SCT011 25/23 Q1011 =',0,'2013-12-19 15:52:02');
INSERT INTO `metar_speci` VALUES ('WIPB202012230030SAID34WIPB202012230030','SA','ID','34','WIPB','2020-12-23 00:30:00','','WIPB','2020-12-23 00:30:00','METAR WIPB 230030Z 25003KT 3000 HZ BKN010 26/24 Q1010=',1,'2020-12-23 00:35:01');
INSERT INTO `metar_speci` VALUES ('WIPC201406180000SAID31WIPC201406180000','SA','ID','31','WIPC','2014-06-18 00:00:00','','WIPC','2014-06-18 00:00:00','METAR WIPC 180000Z 35004KT 5000 SCT012 24/23 Q1010=',1,'2014-06-18 00:51:01');
INSERT INTO `metar_speci` VALUES ('1218','SA','ID','??','WIPH','2010-01-20 01:00:00','','WIJI','2010-01-20 01:00:00','METAR WIPH 200100Z 34004KT 4000 -RA SCT013 BKN089 21/19 Q018=',NULL,'2013-12-19 17:15:25');
INSERT INTO `metar_speci` VALUES ('WIPI201409180600SAID35WIPI201409180600','SA','ID','35','WIPI','2014-09-18 06:00:00','','WIPI','2014-09-18 06:00:00','METAR WIPI 180600Z 12007KT 9999 BKN015 29/23 1012=',0,'2014-09-18 06:16:01');
INSERT INTO `metar_speci` VALUES ('2246','SA','ID','??','WIPK','2010-01-20 10:00:00','','WIKK','2010-01-20 10:00:00','METAR WIPK 201000Z 04005KT 9999 SCT014 29/24 Q1009=',NULL,'2013-12-19 17:15:25');
INSERT INTO `metar_speci` VALUES ('WIPL201312190700SAID34WIPL201312190700','SA','ID','34','WIPL','2013-12-19 07:00:00','','WIGG','2013-12-19 07:00:00','METAR WIPL 190700Z 26006KT 9999 FEW020 31/23 Q1006 NOSIG=',1,'2013-12-19 11:10:01');
INSERT INTO `metar_speci` VALUES ('WIPP201312190930SAID32WIPP201312190930','SA','ID','32','WIPP','2013-12-19 09:30:00','','WIPP','2013-12-19 09:30:00','METAR WIPP 190930Z 03005KT 9999 TS SCT015 FEW020CB 28/24 Q1007=',1,'2013-12-19 09:32:01');
INSERT INTO `metar_speci` VALUES ('WIPR201312191100SAID34WIPR201312191100','SA','ID','34','WIPR','2013-12-19 11:00:00','','WIBJ','2013-12-19 11:00:00','METAR WIPR 191100Z 00000KT 5000 HZ FEW013CB SCT013 26/24 Q1008=',1,'2013-12-19 10:53:01');
INSERT INTO `metar_speci` VALUES ('WIPT201312191100SAID32WIPT201312191100','SA','ID','32','WIPT','2013-12-19 11:00:00','','WIEE','2013-12-19 11:00:00','METAR WIPT 191100Z 31003KT 9999 SCT020 29/24 Q1007=',1,'2013-12-19 10:55:01');
INSERT INTO `metar_speci` VALUES ('WIRR201503060700SAID34WIRR201503060700','SA','ID','34','WIRR','2015-03-06 07:00:00','','WIRR','2015-03-06 07:00:00','METAR WIRR 060700Z 25005KT 9999 SCT018 31/23 Q1009 NOSIG=',1,'2015-03-06 07:19:01');
INSERT INTO `metar_speci` VALUES ('WICD201801230000SAID35WISC201801230000','SA','ID','35','WISC','2018-01-23 00:00:00','','WICD','2018-01-23 00:00:00','METAR WICD 230000Z 00000KT 8000 FEW020 25/23 Q1006=',1,'2018-01-23 00:11:02');
INSERT INTO `metar_speci` VALUES ('WICD201703180300SAID35WISD201703180300','SA','ID','35','WISD','2017-03-18 03:00:00','','WICD','2017-03-18 03:00:00','METAR WICD 180300Z 32005KT 7000 SCT018 31/24 Q1012=',1,'2017-03-18 03:00:02');
INSERT INTO `metar_speci` VALUES ('665803','SA','ID','35','WISO','2011-12-09 00:00:00','','WIOS','2011-12-09 00:00:00','METAR WIOS 090000Z 12003KT 6000 HAZE BKN010 24/23 Q1010=',NULL,'2014-01-06 04:54:54');
INSERT INTO `metar_speci` VALUES ('1330150','SA','ID','35','WISR','2013-05-19 23:00:00','','WISR','2013-05-19 23:00:00','METAR WISR 192300Z 23002KT 9999 SCT014 28/25 Q1011=',NULL,'2013-12-19 17:15:25');
INSERT INTO `metar_speci` VALUES ('WIDT201709040816SPID33WIST201709040816','SP','ID','33','WIST','2017-09-04 08:16:00','','WIDT','2017-09-04 08:16:00','SPECI WIDT 040816Z 19012KT 6000 -TSRA SCT020CB OVC100 30/25 Q1008=',1,'2017-09-04 08:20:02');
INSERT INTO `metar_speci` VALUES ('798','SA','ID','??','WITC','2010-01-19 09:00:00','','WITC','2010-01-19 09:00:00','METAR WITC 190900Z 19008KT 9999 SCT20 31/25 Q1010 NOSIG=',NULL,'2013-12-19 17:15:25');
INSERT INTO `metar_speci` VALUES ('WITD201605090400SAID33WITD201605090400','SA','ID','33','WITD','2016-05-09 04:00:00','','WITD','2016-05-09 04:00:00','METAR WITD 090400Z 07005KT 7000 SCT016TCU 32/27 Q1011 NOSIG=',1,'2016-05-09 04:25:01');
INSERT INTO `metar_speci` VALUES ('WITG202005280430SAID32WITG202005280430','SA','ID','32','WITG','2020-05-28 04:30:00','','WITG','2020-05-28 04:30:00','METAR WITG 280430Z 00000KT 9999 SCT014 30/25 Q1011=',1,'2020-05-28 04:30:01');
INSERT INTO `metar_speci` VALUES ('403','SA','ID','??','WITM','2010-01-19 00:00:00','','WIMA','2010-01-19 00:00:00','METAR WITM 190000Z 00000KT 4000 HZ FEW017CB SCT017 24/22 Q1012=',NULL,'2013-12-19 17:15:25');
INSERT INTO `metar_speci` VALUES ('824422','SA','ID','35','WITN','2012-05-02 09:00:00','','WITN','2012-05-02 09:00:00','METAR WITN 020900Z 22006KT 9999 BKN018 31/28 Q1009=',1,'2013-12-19 17:15:25');
INSERT INTO `metar_speci` VALUES ('1094916','SA','ID','34','WITR','2012-12-10 06:00:00','','WITR','2012-12-10 06:00:00','METAR WITR 100600Z 01005KT 7000 BKN015 31/24 Q1009=',NULL,'2013-12-19 17:15:25');
INSERT INTO `metar_speci` VALUES ('123','SA','ID','??','WITT','2010-01-18 12:00:00','','WITT','2010-01-18 12:00:00','METAR WITT 181200Z 12004KT 9000 SCT018 25/23 Q1012 NOSIG=',NULL,'2013-12-19 17:15:25');
INSERT INTO `metar_speci` VALUES ('321136','SA','ID','35','WJAY','2011-01-19 05:00:00','','WABB','2011-01-19 05:00:00','METAR WABB 190500Z 270005KT RA FEW017CB BKN018 29/24 Q1007 RMK CB OVER THE FIELD=',NULL,'2014-01-06 04:54:54');
INSERT INTO `metar_speci` VALUES ('WIJI201905041200SAID35WJII201905041200','SA','ID','35','WJII','2019-05-04 12:00:00','','WIJI','2019-05-04 12:00:00','METAR WIJI 041200Z 35003KT 6000 SCT016 23/21 Q1015 NOSIG=',1,'2019-05-04 12:10:01');
INSERT INTO `metar_speci` VALUES ('1120080','SA','ID','35','WLAK','2013-01-13 10:00:00','','WAQT','2013-01-13 10:00:00','METAR WALK 131000Z 00000KT 9999 SCT018 32/26 Q1008=',NULL,'2014-01-06 04:54:54');
INSERT INTO `metar_speci` VALUES ('599883','SA','ID','34','WLAS','2011-10-09 00:00:00','','WALS','2011-10-09 00:00:00','METAR WALS 090000Z 1904KT 4000 SLRSRETS FEWCB014 SCT013 T24/23 Q1014 NOSIG=',NULL,'2014-01-06 04:54:54');
INSERT INTO `metar_speci` VALUES ('WAMH201704090500SAID35WMAH201704090500','SA','ID','35','WMAH','2017-04-09 05:00:00','','WAMH','2017-04-09 05:00:00','METAR WAMH 090500Z 00000KT 7000 -RA SCT018 28/25 Q1009=',1,'2017-04-09 05:00:02');
INSERT INTO `metar_speci` VALUES ('WAMI201412301000SAID35WMAI201412301000','SA','ID','35','WMAI','2014-12-30 10:00:00','','WAFL','2014-12-30 10:00:00','METAR WAMI 301000Z 00000KT FEW017 29/24 Q1007 NOSIG=',1,'2014-12-30 11:10:01');
INSERT INTO `metar_speci` VALUES ('WAML201502130700SAID34WMAL201502130700','SA','ID','34','WMAL','2015-02-13 07:00:00','','WAFF','2015-02-13 07:00:00','METAR WAML 130700Z 34012KT 9999 SCT020 31/23 Q1009=',1,'2015-02-13 07:02:02');
INSERT INTO `metar_speci` VALUES ('WBKK201312190915SPMS32WMKK201312190900','SP','MS','32','WMKK','2013-12-19 09:00:00','','WBKK','2013-12-19 09:15:00','SPECI WBKK 190915Z 11006KT 9999 -RA FEW013 FEW016CB SCT130 BKN260 26/24 Q1007 RETSRA NOSIG RMK F91 1CB N-E=',1,'2013-12-19 09:32:01');
INSERT INTO `metar_speci` VALUES ('1053611','SA','ID','34','WOAI','2012-10-09 01:56:00','','WAGI','2012-10-09 02:00:00','METAR WAOI 090200Z 10005KT 3000 FU SCT012 30/25 Q1010=',NULL,'2014-01-06 04:54:54');
INSERT INTO `metar_speci` VALUES ('1425323','SA','ID','35','WOAM','2013-07-12 00:00:00','','WAGK','2013-07-12 00:00:00','METAR WAOM 120000Z 00000KT 2000 BR BKN006 24/24 Q1012=',NULL,'2014-01-06 04:54:54');
INSERT INTO `metar_speci` VALUES ('572164','SA','ID','35','WOAS','2011-09-13 03:00:00','','WAGS','2011-09-13 03:00:00','METAR WAOS 130300Z 09004KT 4000 -RA FEW010CB BKN009 28/25 Q1011=',NULL,'2014-01-06 04:54:54');
INSERT INTO `metar_speci` VALUES ('WIGG201901200000SAID34WOGG201901200000','SA','ID','34','WOGG','2019-01-20 00:00:00','','WIGG','2019-01-20 00:00:00','METAR WIGG 200000Z 05005KT 8000 FEW015CB FEW020 25/24 Q1008 NOSIG=',1,'2019-01-20 00:05:01');
INSERT INTO `metar_speci` VALUES ('WIOG201404040000SAID35WOIG201404040000','SA','ID','35','WOIG','2014-04-04 00:00:00','','WIOG','2014-04-04 00:00:00','METAR WIOG 040000Z 00000KT 9999 SCT013 SCT100 22/22 Q1010=',1,'2014-04-04 00:02:01');
INSERT INTO `metar_speci` VALUES ('WIKK202012100700SAID34WOKK202012100700','SA','ID','34','WOKK','2020-12-10 07:00:00','','WIKK','2020-12-10 07:00:00','METAR WIKK 100700Z 35012KT 9000 BKN016 30/25 Q1006 NOSIG=',1,'2020-12-10 07:00:01');
INSERT INTO `metar_speci` VALUES ('WIMB201602040800SAID35WOMB201602040800','SA','ID','35','WOMB','2016-02-04 08:00:00','','WIMB','2016-02-04 08:00:00','METAR WIMB 040800Z 36007 9999 FEW020 33/27M Q1006 NOPSIG=',0,'2016-02-04 08:20:01');
INSERT INTO `metar_speci` VALUES ('WIPB202302180630SAID34WOPB202302180630','SA','ID','34','WOPB','2023-02-18 06:30:00','','WIPB','2023-02-18 06:30:00','METAR WIPB 180630Z 32006KT 8000 BKN010 30/23 Q1008=',1,'2023-02-18 06:35:01');
INSERT INTO `metar_speci` VALUES ('WIOK201611150328SPID35WOPK201611150328','SP','ID','35','WOPK','2016-11-15 03:28:00','','WIOK','2016-11-15 03:28:00','SPECI WIOK 150328Z 21003KT 9000 -RA FEW011CB SCT012 27/24 Q1011=',1,'2016-11-15 03:50:01');
INSERT INTO `metar_speci` VALUES ('294605','SA','ID','35','WPAL','2010-12-25 22:00:00','','WAPL','2010-12-25 22:00:00','METAR WAPL 252200Z 29010KT 9999 BKN017 27/23 Q1005 NOSIG=',NULL,'2014-01-06 04:54:54');
INSERT INTO `metar_speci` VALUES ('WAQJ201510040300SAID35WQAJ201510040300','SA','ID','35','WQAJ','2015-10-04 03:00:00','','WAQJ','2015-10-04 03:00:00','METAR WAQJ 040300Z 00000KT 9999 SCT015 26/20 Q1020=',1,'2015-10-04 03:15:02');
INSERT INTO `metar_speci` VALUES ('817963','SA','ID','31','WQBB','2012-04-27 04:00:00','','WABB','2012-04-27 04:00:00','METAR WABB 270400Z 27005KT 9999 SCT018 28/25 Q1011 NOSIG=',NULL,'2014-01-06 04:54:54');
INSERT INTO `metar_speci` VALUES ('WAHL201504290200SAID34WQHL201504290200','SA','ID','34','WQHL','2015-04-29 02:00:00','','WAHL','2015-04-29 02:00:00','METAR WAHL 290200Z 36010KT 8000 SCT015 29/23 Q1010=',1,'2015-04-29 02:14:01');
INSERT INTO `metar_speci` VALUES ('WAOI201502222100SAID34WQOI201502222100','SA','ID','34','WQOI','2015-02-22 21:00:00','','WAGI','2015-02-22 21:00:00','METAR WAOI 222100Z 000000KT 5000 FEW012CB BKN012 26/25 Q1010 CB TO NORTH=',0,'2015-02-22 21:14:01');
INSERT INTO `metar_speci` VALUES ('WRKM201708251600SAID33WRKM201708251600','SA','ID','33','WRKM','2017-08-25 16:00:00','','WRKM','2017-08-25 16:00:00','METAR WRKM 251600Z 00000KT 8000 FEW020 23/21 Q1012 NOSIG=',1,'2017-08-25 16:10:01');
INSERT INTO `metar_speci` VALUES ('WARA201807300400SAID35WRRA201807310400','SA','ID','35','WRRA','2018-07-31 04:00:00','','WARA','2018-07-30 04:00:00','METAR WARA 300400Z 27004KT 5000 HZ SCT014 27/21 Q1016=',NULL,'2018-07-31 03:52:01');
INSERT INTO `metar_speci` VALUES ('WARR201405231200SAID31WRRR201405231200','SA','ID','31','WRRR','2014-05-23 12:00:00','','WARR','2014-05-23 12:00:00','METAR WARR 231200Z 10009KT 8000 FEW020 29/23 Q1009=',1,'2014-05-23 12:02:01');
INSERT INTO `metar_speci` VALUES ('WATL201312270200SAID33WRRX201312270200','SA','ID','33','WRRX','2013-12-27 02:00:00','','WATL','2013-12-27 02:00:00','METAR WATL 270200Z 00000KT 9999 BKN018 BKN082 30/27 Q1006 RERA=',1,'2013-12-27 02:15:01');
INSERT INTO `metar_speci` VALUES ('393789','SA','ID','35','WSAF','2011-03-25 02:00:00','','WASF','2011-03-25 02:00:00','METAR WASF 250200Z 18007KT 9999 FEW012CB BKN013 29/25 Q1008=',NULL,'2014-01-06 04:54:54');
INSERT INTO `metar_speci` VALUES ('WAOO201508072130SAID32WSOO201508072130','SA','ID','32','WSOO','2015-08-07 21:30:00','','WAOO','2015-08-07 21:30:00','METAR WAOO 072130Z 00000 9000 NSC 22/21 Q1009 NOSIG=',0,'2015-08-07 21:54:01');
INSERT INTO `metar_speci` VALUES ('WAPC201702011000SAID35WSPC201702011000','SA','ID','35','WSPC','2017-02-01 10:00:00','','WAPC','2017-02-01 10:00:00','METAR WAPC 011000Z 24008KT 9999 FEW019 29/23 Q1006 NOSIG=',1,'2017-02-01 10:05:01');
INSERT INTO `metar_speci` VALUES ('WATG201810150330SAID33WSTG201810150330','SA','ID','33','WSTG','2018-10-15 03:30:00','','WATG','2018-10-15 03:30:00','METAR WATG 150330Z 09006KT 9999 FEW016 Q1O11 NOSIG=',0,'2018-10-15 03:36:01');
INSERT INTO `metar_speci` VALUES ('WATK201505240100SAID34WSTK201505240100','SA','ID','34','WSTK','2015-05-24 01:00:00','','WATK','2015-05-24 01:00:00','METAR WATK 240100Z 11006KT 9999 FEW016 28/23 Q1014=',1,'2015-05-24 01:16:01');
INSERT INTO `metar_speci` VALUES ('1405158','SA','ID','35','WTAC','2013-07-01 00:00:00','','WATC','2013-07-01 00:00:00','METAR WATC 010000Z 00000KT 9999 FEW020 28/22 Q1012=',NULL,'2014-01-06 04:54:54');
INSERT INTO `metar_speci` VALUES ('707011','SA','ID','35','WTAG','2012-01-18 07:00:00','','WATG','2012-01-18 07:00:00','METAR WATG 180700Z 00000KT 8000 TS FEWCB010 SCT012 21/19 Q1008=',NULL,'2014-01-06 04:54:54');
INSERT INTO `metar_speci` VALUES ('369712','SA','ID','35','WTAM','2011-03-03 08:00:00','','WATM','2011-03-03 08:00:00','METAR WATM 030800Z 00000 5000 RA BKN17 26/25 Q1009=',NULL,'2014-01-06 04:54:54');
INSERT INTO `metar_speci` VALUES ('1354563','SA','ID','31','WTAS','2013-06-03 03:00:00','','WATS','2013-06-03 03:00:00','METAR WATS 030300Z 09015KT 9999 SCT020 30/21 Q1009=',NULL,'2014-01-06 04:54:54');
INSERT INTO `metar_speci` VALUES ('WATR201404061200SAID33WTRA201404061200','SA','ID','33','WTRA','2014-04-06 12:00:00','','WATR','2014-04-06 12:00:00','METAR WATR 061200Z 00000KT 9999 FEW020 26/24 Q1011 NOSIG=',1,'2014-04-06 12:03:01');
INSERT INTO `metar_speci` VALUES ('WICC202204192200SAID32WUCC202204192200','SA','ID','32','WUCC','2022-04-19 22:00:00','','WICC','2022-04-19 22:00:00','METAR WICC 192200Z 09005KT 3000 BR SCT018 21/21 Q1013 NOSIG=',1,'2022-04-19 21:45:01');
INSERT INTO `metar_speci` VALUES ('WICM202208250200SAID35WUCM202208250200','SA','ID','35','WUCM','2022-08-25 02:00:00','','WICM','2022-08-25 02:00:00','METAR WICM 250200Z 14006KT 3000 HZ SCT015 24/22 Q1016 NOSIG=',1,'2022-08-25 02:00:02');
INSERT INTO `metar_speci` VALUES ('WIJI201604110640SPID35WUJI201604110640','SP','ID','35','WUJI','2016-04-11 06:40:00','','WIJI','2016-04-11 06:40:00','SPECI WIJI 110640Z 19003KT 7000 TS BKN015CB 31/23 Q1014=',1,'2016-04-11 07:05:01');
INSERT INTO `metar_speci` VALUES ('WIKT201810150800SAID35WUKT201810150800','SA','ID','35','WUKT','2018-10-15 08:00:00','','WIKT','2018-10-15 08:00:00','METAR WIKT 150800Z 31007KT 5000 -TSRA FEW017CB SCT020 25/23 Q1010=',1,'2018-10-15 08:00:02');
INSERT INTO `metar_speci` VALUES ('638750','SA','ID','31','WWBB','2011-11-14 12:00:00','','WABB','2011-11-14 12:00:00','METAR WABB 141200Z 00000KT 9999 FEW017CB SCT020 27/25 Q1008 RMK CB TO S=',NULL,'2014-01-06 04:54:54');
INSERT INTO `metar_speci` VALUES ('WWWW201405231300SAID33WWWW201405231300','SA','ID','33','WWWW','2014-05-23 13:00:00','','WWWW','2014-05-23 13:00:00','METAR WWWW 231300Z 30002KT 9999 FEW018 26/25 Q1010 NOSIG=',1,'2014-05-23 13:40:01');
INSERT INTO `metar_speci` VALUES ('WXXX202105110000SAID35WXXX202105110000','SA','ID','35','WXXX','2021-05-11 00:00:00','','WXXX','2021-05-11 00:00:00','METAR WXXX 110000Z 35006KT 9999 FEW018 BKN100 29/26 Q1010 NOSIG=',1,'2021-05-11 00:30:02');
INSERT INTO `metar_speci` VALUES ('YFRT201312190917SPAU32YBBN201312190917','SP','AU','32','YBBN','2013-12-19 09:17:00','','YFRT','2013-12-19 09:17:00','SPECI YFRT 190917Z AUTO 17020G30KT //// // ////// 26/15 Q1009=',1,'2013-12-19 09:31:01');
INSERT INTO `metar_speci` VALUES ('172847','SA','ID','??','YMAV','2010-08-11 17:01:00','','WIMM','2010-08-11 17:00:00','METAR WIMM 111700Z 00000KT 7000 BKN016 24/23 Q1011 NOSIG=',NULL,'2014-01-06 04:54:54');
/*!40000 ALTER TABLE `metar_speci` ENABLE KEYS */;
UNLOCK TABLES;
/*!40103 SET TIME_ZONE=@OLD_TIME_ZONE */;

/*!40101 SET SQL_MODE=@OLD_SQL_MODE */;
/*!40014 SET FOREIGN_KEY_CHECKS=@OLD_FOREIGN_KEY_CHECKS */;
/*!40014 SET UNIQUE_CHECKS=@OLD_UNIQUE_CHECKS */;
/*!40101 SET CHARACTER_SET_CLIENT=@OLD_CHARACTER_SET_CLIENT */;
/*!40101 SET CHARACTER_SET_RESULTS=@OLD_CHARACTER_SET_RESULTS */;
/*!40101 SET COLLATION_CONNECTION=@OLD_COLLATION_CONNECTION */;
/*!40111 SET SQL_NOTES=@OLD_SQL_NOTES */;

-- Dump completed on 2023-03-30 13:35:09
